{"type":"FeatureCollection","features":[{"type":"Feature","id":"way/121436087","properties":{"kind":"land","name":"","osm_tags":{"leisure":"sports_centre","sport":"tennis"}},"geometry":{"type":"Polygon","coordinates":[[[91.6951046,26.1920696],[91.6952158,26.1920679],[91.6952116,26.1918503],[91.6951004,26.191852],[91.6951046,26.1920696]]]}},{"type":"Feature","id":"way/121436090","properties":{"kind":"land","name":"","osm_tags":{"leisure":"sports_centre","sport":"volleyball"}},"geometry":{"type":"Polygon","coordinates":[[[91.6972106,26.1920737],[91.6973906,26.1920702],[91.6973828,26.1917473],[91.6972028,26.1917508],[91.6972106,26.1920737]]]}},{"type":"Feature","id":"way/121436098","properties":{"kind":"land","name":"","osm_tags":{"leisure":"sports_centre","sport":"tennis"}},"geometry":{"type":"Polygon","coordinates":[[[91.6947738,26.1920748],[91.6948885,26.1920732],[91.6948848,26.1918546],[91.6947701,26.1918561],[91.6947738,26.1920748]]]}},{"type":"Feature","id":"way/121436099","properties":{"kind":"land","name":"","osm_tags":{"leisure":"sports_centre","sport":"tennis"}},"geometry":{"type":"Polygon","coordinates":[[[91.6947078,26.1920761],[91.694704,26.1918569],[91.6945892,26.1918585],[91.6945929,26.1920777],[91.6947078,26.1920761]]]}},{"type":"Feature","id":"way/121436114","properties":{"kind":"land","name":"","osm_tags":{"leisure":"sports_centre","sport":"hockey"}},"geometry":{"type":"Polygon","coordinates":[[[91.6960281,26.1923405],[91.6970528,26.1923311],[91.6970464,26.1917741],[91.6960218,26.1917835],[91.6960281,26.1923405]]]}},{"type":"Feature","id":"way/121436116","properties":{"kind":"land","name":"","osm_tags":{"leisure":"sports_centre","sport":"soccer"}},"geometry":{"type":"Polygon","coordinates":[[[91.6963973,26.193546],[91.6971759,26.1935083],[91.6971306,26.1924217],[91.6963426,26.192451],[91.6963973,26.193546]]]}},{"type":"Feature","id":"way/121436120","properties":{"kind":"land","name":"","osm_tags":{"leisure":"swimming_pool","sport":"swimming"}},"geometry":{"type":"Polygon","coordinates":[[[91.6989387,26.1919552],[91.6993047,26.1919467],[91.6992858,26.1912937],[91.6989198,26.1913022],[91.6989387,26.1919552]]]}},{"type":"Feature","id":"way/121436121","properties":{"kind":"land","name":"","osm_tags":{"leisure":"pitch","sport":"basketball"}},"geometry":{"type":"Polygon","coordinates":[[[91.6977061,26.1920618],[91.6978827,26.1920623],[91.6978798,26.1917652],[91.6977006,26.191768],[91.6977061,26.1920618]]]}},{"type":"Feature","id":"way/121436139","properties":{"kind":"land","name":"B","osm_tags":{"leisure":"pitch","name":"B","sport":"basketball"}},"geometry":{"type":"Polygon","coordinates":[[[91.6979318,26.1920718],[91.6981085,26.1920682],[91.6981075,26.1917725],[91.6979282,26.1917753],[91.6979318,26.1920718]]]}},{"type":"Feature","id":"way/121436147","properties":{"kind":"land","name":"","osm_tags":{"leisure":"sports_centre","sport":"volleyball"}},"geometry":{"type":"Polygon","coordinates":[[[91.6974222,26.1920709],[91.6976028,26.1920677],[91.697592,26.1917483],[91.6974141,26.1917491],[91.6974222,26.1920709]]]}},{"type":"Feature","id":"way/121436152","properties":{"kind":"land","name":"","osm_tags":{"leisure":"sports_centre","sport":"tennis"}},"geometry":{"type":"Polygon","coordinates":[[[91.6952817,26.1920667],[91.695392,26.1920652],[91.6953883,26.1918481],[91.6952781,26.1918496],[91.6952817,26.1920667]]]}},{"type":"Feature","id":"way/144431213","properties":{"kind":"land","name":"athletics","osm_tags":{"leisure":"sports_centre","name":"athletics","wheelchair":"yes"}},"geometry":{"type":"Polygon","coordinates":[[[91.6974304,26.1926758],[91.6975027,26.1934899],[91.697606,26.1936924],[91.6980393,26.1937844],[91.6983784,26.1936839],[91.698502,26.1934604],[91.6984494,26.193018],[91.6983968,26.1925755],[91.6982587,26.1923396],[91.6979432,26.1922511],[91.6976671,26.1922924],[91.6975158,26.1924458],[91.6974304,26.1926758]]]}},{"type":"Feature","id":"way/221491272","properties":{"kind":"land","name":"","osm_tags":{"landuse":"industrial"}},"geometry":{"type":"Polygon","coordinates":[[[91.7043989,26.193184],[91.7047321,26.1932142],[91.7052542,26.1932868],[91.7061248,26.1930675],[91.7085916,26.1929853],[91.7090727,26.1983098],[91.7027798,26.1978986],[91.7029631,26.1932731],[91.7043989,26.193184]]]}},{"type":"Feature","id":"way/664467137","properties":{"kind":"land","name":"","osm_tags":{"landuse":"railway"}},"geometry":{"type":"Polygon","coordinates":[[[91.6849798,26.1908622],[91.6851112,26.1908429],[91.6847008,26.1895384],[91.6844085,26.1887104],[91.6845748,26.1886743],[91.6841598,26.1873193],[91.6842747,26.1872827],[91.6838546,26.185851],[91.6836445,26.1847918],[91.6835788,26.1838746],[91.6833076,26.1837691],[91.6820941,26.1841545],[91.6819873,26.1841836],[91.6818041,26.1842336],[91.6823342,26.1855369],[91.6832894,26.1875969],[91.6838425,26.1883494],[91.6849798,26.1908622]]]}},{"type":"Feature","id":"way/684576013","properties":{"kind":"land","name":"Food stalls place","osm_tags":{"leisure":"park","name":"Food stalls place"}},"geometry":{"type":"Polygon","coordinates":[[[91.6937405,26.1908171],[91.6934462,26.1905427],[91.6935443,26.1898593],[91.6939539,26.1894969],[91.6941328,26.1895694],[91.6941385,26.1896937],[91.6940174,26.189994],[91.6939655,26.1903408],[91.6937405,26.1908171]]]}},{"type":"Feature","id":"way/684576017","properties":{"kind":"land","name":"","osm_tags":{"leisure":"pitch","sport":"cricket","surface":"grass"}},"geometry":{"type":"Polygon","coordinates":[[[91.6959848,26.1913951],[91.6976118,26.1914055],[91.697606,26.191069],[91.6976752,26.1910275],[91.6977214,26.1900594],[91.6974733,26.1900439],[91.6972483,26.189873],[91.697231,26.1897384],[91.6959559,26.1896918],[91.6959848,26.1913951]]]}},{"type":"Feature","id":"way/684576022","properties":{"kind":"land","name":"","osm_tags":{"leisure":"pitch","sport":"basketball"}},"geometry":{"type":"Polygon","coordinates":[[[91.7001388,26.1880726],[91.7001388,26.1877516],[91.7003638,26.1877516],[91.7003407,26.1880675],[91.7001388,26.1880726]]]}},{"type":"Feature","id":"way/912248049","properties":{"kind":"land","name":"","osm_tags":{"landuse":"residential","residential":"apartments"}},"geometry":{"type":"Polygon","coordinates":[[[91.6958581,26.1856371],[91.6960824,26.1856371],[91.6960691,26.1847781],[91.6958403,26.1847821],[91.6958581,26.1856371]]]}},{"type":"Feature","id":"way/912248050","properties":{"kind":"land","name":"Dhansiri Hostel","osm_tags":{"landuse":"residential","name":"Dhansiri Hostel","residential":"dormitory"}},"geometry":{"type":"Polygon","coordinates":[[[91.6977942,26.1945648],[91.6985512,26.1946671],[91.6985717,26.1942999],[91.6988376,26.1943288],[91.6988902,26.1938934],[91.6982501,26.1938357],[91.6982209,26.1941137],[91.6981303,26.1940954],[91.6981771,26.1938751],[91.6978965,26.1938436],[91.6977942,26.1945648]]]}},{"type":"Feature","id":"way/1236294853","properties":{"kind":"land","name":"Married Scholars Hostel","osm_tags":{"landuse":"residential","name":"Married Scholars Hostel"}},"geometry":{"type":"Polygon","coordinates":[[[91.6979213,26.1956926],[91.6981067,26.1946508],[91.6985836,26.1947019],[91.6986135,26.1943683],[91.6988564,26.1944002],[91.6986116,26.1956858],[91.6984192,26.195664],[91.6984136,26.1957595],[91.6979213,26.1956926]]]}},{"type":"Feature","id":"way/144431214","properties":{"kind":"water","name":"","osm_tags":{"natural":"water","water":"reservoir"}},"geometry":{"type":"Polygon","coordinates":[[[91.7003717,26.1845659],[91.7007401,26.1846885],[91.7009358,26.1847535],[91.7012265,26.1848476],[91.7015494,26.1835608],[91.701412,26.1835086],[91.7009307,26.1834231],[91.7007034,26.1834022],[91.7002847,26.1836527],[91.7003126,26.1840115],[91.7002847,26.1842159],[91.7002893,26.1843494],[91.7001917,26.1844954],[91.7002646,26.1845119],[91.7003717,26.1845659]]]}},{"type":"Feature","id":"way/144431215","properties":{"kind":"water","name":"IITG lake","osm_tags":{"name":"IITG lake","natural":"water","water":"reservoir"}},"geometry":{"type":"Polygon","coordinates":[[[91.694394,26.1913394],[91.6955833,26.1913536],[91.6956343,26.1912717],[91.6956139,26.1893803],[91.6954135,26.1893292],[91.6949806,26.1894915],[91.6947415,26.1895905],[91.694294,26.1896432],[91.6942178,26.1897481],[91.694106,26.189937],[91.6940588,26.1901436],[91.6940315,26.1903102],[91.6939723,26.1905403],[91.6939394,26.1906347],[91.6938601,26.1908026],[91.694394,26.1913394]]]}},{"type":"Feature","id":"way/144431216","properties":{"kind":"water","name":"Lake opposite guest house","osm_tags":{"name":"Lake opposite guest house","natural":"water","water":"reservoir"}},"geometry":{"type":"Polygon","coordinates":[[[91.6947726,26.1947619],[91.6953032,26.1947096],[91.6956647,26.194741],[91.6961574,26.1948823],[91.6963555,26.1951033],[91.6964198,26.1952066],[91.6964081,26.1954101],[91.6964169,26.1956435],[91.696586,26.1956775],[91.6966559,26.1957403],[91.6967696,26.1957508],[91.6968921,26.1957482],[91.6970408,26.1957508],[91.6973877,26.1958057],[91.6978629,26.1958345],[91.6978629,26.1957115],[91.6978425,26.195552],[91.6977959,26.1954526],[91.6976384,26.1953845],[91.6974519,26.1952433],[91.6974678,26.195115],[91.6975215,26.1949728],[91.6975558,26.194867],[91.6976119,26.1947849],[91.6975802,26.1947162],[91.6975932,26.1945118],[91.6975219,26.1943982],[91.6974438,26.1942697],[91.6974576,26.1941792],[91.6974699,26.1940495],[91.6973544,26.1939997],[91.6970557,26.1940142],[91.696847,26.1939292],[91.6964733,26.1938751],[91.6963146,26.1939518],[91.6961663,26.1938817],[91.69603,26.1938565],[91.695414,26.1938175],[91.6947317,26.1939143],[91.6946909,26.1941812],[91.6947086,26.1945518],[91.6947726,26.1947619]]]}},{"type":"Feature","id":"way/144431217","properties":{"kind":"water","name":"","osm_tags":{"natural":"water","source":"bing sat"}},"geometry":{"type":"Polygon","coordinates":[[[91.6934595,26.1915019],[91.6938145,26.1914901],[91.6938605,26.1913603],[91.6938014,26.1912246],[91.693683,26.1911125],[91.6933872,26.191142],[91.6932557,26.1911538],[91.6932228,26.191378],[91.6934595,26.1915019]]]}},{"type":"Feature","id":"way/517935379","properties":{"kind":"water","name":"","osm_tags":{"natural":"water"}},"geometry":{"type":"Polygon","coordinates":[[[91.6877758,26.1840051],[91.6876658,26.1840315],[91.687529,26.1839521],[91.6874513,26.1837596],[91.6873413,26.1836609],[91.6872796,26.1835622],[91.6875317,26.1832252],[91.6877865,26.1830399],[91.6880682,26.1829508],[91.6884437,26.1829243],[91.6887816,26.1829316],[91.6889748,26.1829316],[91.6887602,26.1831626],[91.6885322,26.1833504],[91.6883873,26.1834057],[91.6881486,26.1834346],[91.687808,26.1836488],[91.6877785,26.1837042],[91.6877758,26.1840051]]]}},{"type":"Feature","id":"way/517935381","properties":{"kind":"water","name":"","osm_tags":{"natural":"water","water":"pond"}},"geometry":{"type":"Polygon","coordinates":[[[91.7051383,26.1858967],[91.7056126,26.1859379],[91.70574,26.1854489],[91.7052162,26.1854044],[91.7051383,26.1858967]]]}},{"type":"Feature","id":"way/684576016","properties":{"kind":"water","name":"","osm_tags":{"natural":"water","water":"lake"}},"geometry":{"type":"Polygon","coordinates":[[[91.6922981,26.1890757],[91.69235,26.1890654],[91.6926673,26.188791],[91.6925981,26.1886357],[91.6925519,26.1885632],[91.6921308,26.1886357],[91.6921077,26.1888738],[91.6922981,26.1890757]]]}},{"type":"Feature","id":"way/121436093","properties":{"kind":"stream","name":"","osm_tags":{"waterway":"stream"}},"geometry":{"type":"LineString","coordinates":[[91.6902166,26.1996093],[91.6902333,26.1996036],[91.6907883,26.2002586],[91.6910674,26.200566],[91.6913562,26.2007626],[91.6918343,26.2008966],[91.697596,26.2019523],[91.6976898,26.2019157],[91.6977306,26.2016704],[91.6983296,26.19993],[91.6987921,26.1989906],[91.6986967,26.1973723],[91.6993287,26.1953742],[91.699506,26.1946103],[91.6995394,26.1943269],[91.6995976,26.1939175],[91.6997669,26.1934081],[91.6998864,26.1930507],[91.6998964,26.1924966],[91.7000458,26.192014],[91.7002151,26.1915761],[91.700235,26.1912543],[91.7004342,26.1906734],[91.7005438,26.1900925],[91.700733,26.189306],[91.7008326,26.1890558],[91.7009233,26.1886589],[91.7009971,26.1882387],[91.7010418,26.187751],[91.7013405,26.1874203],[91.7014202,26.187179],[91.7014202,26.1869466],[91.7014899,26.1866517],[91.7016726,26.1860408],[91.7017776,26.1855001],[91.7019381,26.1846497],[91.7021772,26.184033],[91.7021373,26.1838006],[91.7022967,26.1834163],[91.7023963,26.1832107],[91.7023863,26.1829247],[91.7025855,26.1827102],[91.7026317,26.1825204],[91.7026757,26.1822538],[91.702875,26.1784381]]}},{"type":"Feature","id":"way/121451145","properties":{"kind":"building","name":"Guest House","osm_tags":{"building":"hotel","name":"Guest House"}},"geometry":{"type":"Polygon","coordinates":[[[91.6946187,26.1956501],[91.6947307,26.1956675],[91.6947652,26.1957159],[91.6947307,26.1957449],[91.6947631,26.1957816],[91.6947437,26.1957951],[91.6949548,26.1960503],[91.6950798,26.1960735],[91.6954461,26.1959092],[91.695362,26.1957681],[91.6953814,26.1957062],[91.6954504,26.1957275],[91.6954224,26.1957681],[91.6956421,26.1958357],[91.6956895,26.1957371],[91.6957563,26.1957487],[91.6957843,26.195683],[91.6956809,26.1956385],[91.6957025,26.1955593],[91.6955473,26.1954974],[91.6956766,26.1952325],[91.6954956,26.1951746],[91.6955322,26.1950914],[91.6953577,26.1950296],[91.6952931,26.1951398],[91.695222,26.1951243],[91.6952328,26.1950025],[91.6950432,26.194987],[91.6950216,26.1950779],[91.6948342,26.1950605],[91.6947825,26.1953002],[91.694664,26.1952905],[91.6946403,26.1954413],[91.694748,26.1954491],[91.6947415,26.1955148],[91.6946359,26.1955071],[91.6946187,26.1956501]]]}},{"type":"Feature","id":"way/121451155","properties":{"kind":"building","name":"","osm_tags":{"amenity":"library","building":"yes"}},"geometry":{"type":"Polygon","coordinates":[[[91.6925328,26.1893452],[91.6925651,26.189349],[91.6925651,26.1894217],[91.692522,26.1894573],[91.6926996,26.1896058],[91.6929185,26.1894047],[91.6931305,26.1894063],[91.6933563,26.1896135],[91.6935476,26.1894496],[91.6934321,26.1893428],[91.6934287,26.1892763],[91.6935028,26.1892794],[91.6935033,26.1891328],[91.6934252,26.1891325],[91.6934252,26.1890768],[91.6933063,26.189078],[91.6932804,26.1890211],[91.6931512,26.1890227],[91.6931339,26.1890582],[91.6929512,26.1890582],[91.6929202,26.1890242],[91.6927857,26.1890227],[91.6927668,26.1890505],[91.6927684,26.1890832],[91.6925395,26.1890854],[91.6925328,26.1891518],[91.6924755,26.1891518],[91.6924755,26.1892908],[91.6925294,26.1892878],[91.6925328,26.1893452]]]}},{"type":"Feature","id":"way/121451168","properties":{"kind":"building","name":"Transit Complex","osm_tags":{"building":"yes","name":"Transit Complex"}},"geometry":{"type":"Polygon","coordinates":[[[91.7015686,26.193802],[91.7015645,26.1936731],[91.7016119,26.1936712],[91.7016077,26.1934664],[91.7015602,26.1934643],[91.7014934,26.1934237],[91.7014934,26.1933232],[91.7015301,26.1932961],[91.701604,26.1932904],[91.7016004,26.1931164],[91.7015796,26.1930912],[91.7015236,26.1930893],[91.7015193,26.1930216],[91.7015753,26.1930177],[91.7015975,26.1929792],[91.701594,26.1928071],[91.7014719,26.1928051],[91.7014654,26.1926427],[91.7015905,26.1926427],[91.7015861,26.1924281],[91.7015257,26.1924281],[91.7015257,26.1922927],[91.7018455,26.1922847],[91.7018455,26.1921903],[91.7022663,26.1921761],[91.7024275,26.1922583],[91.7024236,26.1925167],[91.7026135,26.1926103],[91.7026188,26.193021],[91.7026766,26.1930163],[91.7026661,26.1934552],[91.7025299,26.1935634],[91.7025332,26.1938064],[91.7023558,26.1938942],[91.7018981,26.1938942],[91.7018771,26.1938187],[91.7015686,26.193802]]]}},{"type":"Feature","id":"way/121451174","properties":{"kind":"building","name":"Academic Complex","osm_tags":{"addr:housename":"Academic Complex","building":"university","building:levels":"4","name":"Academic Complex"}},"geometry":{"type":"Polygon","coordinates":[[[91.690902,26.1880174],[91.6919607,26.1879997],[91.6921382,26.187864],[91.6921513,26.1875277],[91.6922163,26.1875214],[91.692324,26.1874186],[91.6923375,26.18689],[91.6922096,26.1867722],[91.6921624,26.1867722],[91.6921591,26.1864519],[91.6919806,26.1863009],[91.6917349,26.1862979],[91.6917349,26.1860954],[91.6919672,26.1860985],[91.6921288,26.1859504],[91.6921288,26.1856212],[91.6922062,26.1856272],[91.6923442,26.1854912],[91.692324,26.1850049],[91.6921759,26.1848629],[91.6921839,26.1847766],[91.6926277,26.184784],[91.6926299,26.1846259],[91.6925828,26.1846048],[91.6925929,26.1844718],[91.6921788,26.1844658],[91.6921384,26.184493],[91.6921519,26.1845987],[91.6921115,26.1845987],[91.6921014,26.1845504],[91.6919533,26.1844114],[91.6908591,26.1844084],[91.6907278,26.1845413],[91.6907177,26.1846108],[91.6907211,26.1848797],[91.6906538,26.1848797],[91.6905259,26.1849854],[91.690509,26.1855171],[91.6906369,26.1856289],[91.6907144,26.1856259],[91.6907312,26.1859642],[91.6908928,26.1861092],[91.6911184,26.1861032],[91.691115,26.1863147],[91.6909096,26.1863117],[91.6907278,26.1864567],[91.6907346,26.1867829],[91.690647,26.1867769],[91.6905259,26.1869068],[91.6905326,26.1873992],[91.6906706,26.1875321],[91.6907278,26.1875382],[91.6907346,26.1878705],[91.690902,26.1880174]]]}},{"type":"Feature","id":"way/121451183","properties":{"kind":"building","name":"Administrative Block","osm_tags":{"building":"office","building:levels":"4","name":"Administrative Block"}},"geometry":{"type":"Polygon","coordinates":[[[91.6919547,26.190062],[91.6919628,26.1902834],[91.6917367,26.1904909],[91.6918436,26.1905822],[91.6918884,26.1905404],[91.6919453,26.1905838],[91.6919901,26.1905435],[91.6921401,26.1906719],[91.6921952,26.1906271],[91.692259,26.1906766],[91.6923521,26.1905838],[91.6922469,26.1904909],[91.6922021,26.1905312],[91.6921487,26.1904801],[91.6922487,26.1903904],[91.6921183,26.1902805],[91.6921142,26.1900563],[91.69224,26.1899403],[91.6921435,26.189846],[91.6921935,26.1898073],[91.6922556,26.1898568],[91.692359,26.1897563],[91.6922418,26.1896635],[91.6921987,26.1897021],[91.6921332,26.1896604],[91.6919849,26.1897903],[91.6919401,26.1897563],[91.6918901,26.1897965],[91.691835,26.1897594],[91.6917274,26.1898619],[91.6919547,26.190062]]]}},{"type":"Feature","id":"way/121455426","properties":{"kind":"building","name":"Dihing Hostel","osm_tags":{"building":"dormitory","name":"Dihing Hostel"}},"geometry":{"type":"Polygon","coordinates":[[[91.6989221,26.1881715],[91.69904,26.1882954],[91.699279,26.1882984],[91.6992788,26.188237],[91.6996053,26.188239],[91.6996021,26.1882892],[91.6998994,26.1882842],[91.6998994,26.1878261],[91.6995584,26.1876126],[91.6994047,26.1876128],[91.6994068,26.1876579],[91.6994776,26.187658],[91.6994776,26.1876942],[91.699279,26.1876942],[91.6992778,26.1876569],[91.6990299,26.187658],[91.6989221,26.1877939],[91.6989221,26.1881715]]]}},{"type":"Feature","id":"way/121455427","properties":{"kind":"building","name":"Kameng Hostel","osm_tags":{"building":"dormitory","name":"Kameng Hostel"}},"geometry":{"type":"Polygon","coordinates":[[[91.7006663,26.1906901],[91.7012383,26.1908081],[91.7012778,26.1907196],[91.7016394,26.1907904],[91.7016065,26.1908848],[91.7021917,26.1910264],[91.7024568,26.1901938],[91.7017605,26.1900303],[91.7012599,26.1899343],[91.7009018,26.1898398],[91.7006663,26.1906901]]]}},{"type":"Feature","id":"way/121455432","properties":{"kind":"building","name":"Siang Hostel","osm_tags":{"addr:housename":"Siang Hostel","building":"dormitory","building:levels":"4","name":"Siang Hostel"}},"geometry":{"type":"Polygon","coordinates":[[[91.6965404,26.1890038],[91.6965406,26.1889765],[91.6962963,26.188985],[91.6961869,26.1890982],[91.6961911,26.1892266],[91.6965151,26.1892229],[91.6965109,26.1893626],[91.6961995,26.1893664],[91.6961953,26.1894947],[91.6963047,26.1896118],[91.6965446,26.1896156],[91.6965404,26.189574],[91.6967508,26.1895703],[91.6967466,26.1896307],[91.6968854,26.1896307],[91.697079,26.1894759],[91.6970664,26.1890038],[91.6968518,26.1890001],[91.6965404,26.1890038]]]}},{"type":"Feature","id":"way/121455433","properties":{"kind":"building","name":"Subansiri Hostel","osm_tags":{"building":"dormitory","building:levels":"4","name":"Subansiri Hostel","roof:levels":"1","roof:shape":"double_saltbox"}},"geometry":{"type":"Polygon","coordinates":[[[91.6946902,26.1926936],[91.6946835,26.1925863],[91.6946744,26.1922409],[91.6954684,26.1922371],[91.6955233,26.1934211],[91.6946004,26.1934448],[91.6946157,26.1930098],[91.6946109,26.1928005],[91.6946129,26.1927259],[91.6946902,26.1926936]]]}},{"type":"Feature","id":"way/121455436","properties":{"kind":"building","name":"Kapili Hostel","osm_tags":{"addr:housename":"Kapili Hostel","building":"dormitory","building:levels":"4","name":"Kapili Hostel","roof:levels":"0","roof:shape":"skillion"}},"geometry":{"type":"Polygon","coordinates":[[[91.6959091,26.1882675],[91.6959091,26.1883883],[91.6962163,26.1883921],[91.6962206,26.1885394],[91.6959007,26.1885356],[91.6959049,26.1886678],[91.6959933,26.188781],[91.69625,26.188781],[91.6962458,26.1887244],[91.696574,26.1887169],[91.696574,26.1887735],[91.6967255,26.1887735],[91.6967213,26.1882637],[91.6965825,26.1881504],[91.6960059,26.1881429],[91.6959091,26.1882675]]]}},{"type":"Feature","id":"way/121455439","properties":{"kind":"building","name":"Manas Hostel","osm_tags":{"addr:postcode":"781039","building":"residential","building:levels":"3","name":"Manas Hostel"}},"geometry":{"type":"Polygon","coordinates":[[[91.699215,26.1885969],[91.699215,26.1889812],[91.6993227,26.1890996],[91.6999691,26.1890875],[91.6999987,26.1891141],[91.700058,26.1890682],[91.7000337,26.1890319],[91.700066,26.1890078],[91.700198,26.1890054],[91.7001791,26.1884954],[91.700031,26.188493],[91.7000283,26.188464],[91.6998802,26.1884688],[91.6998829,26.1885099],[91.6995651,26.1885172],[91.6995597,26.1884688],[91.6993092,26.1884833],[91.699215,26.1885969]]]}},{"type":"Feature","id":"way/121455441","properties":{"kind":"building","name":"Umiam Hostel","osm_tags":{"building":"dormitory","name":"Umiam Hostel"}},"geometry":{"type":"Polygon","coordinates":[[[91.7011594,26.1888079],[91.7027243,26.1891501],[91.702915,26.1883831],[91.7013632,26.1880468],[91.7011594,26.1888079]]]}},{"type":"Feature","id":"way/121455959","properties":{"kind":"building","name":"Shopping Complex","osm_tags":{"building":"retail","building:levels":"1","name":"Shopping Complex"}},"geometry":{"type":"Polygon","coordinates":[[[91.6877961,26.1949805],[91.6878629,26.1950946],[91.6880439,26.1950037],[91.6879706,26.1948955],[91.6877961,26.1949805]]]}},{"type":"Feature","id":"way/144431212","properties":{"kind":"building","name":"Bhupen Hazarika Auditorium","osm_tags":{"addr:housename":"Dr. Bhupem Hazarika Auditorium","building":"university","building:levels":"4","name":"Bhupen Hazarika Auditorium","roof:levels":"1","roof:shape":"saltbox","source":"bing sat"}},"geometry":{"type":"Polygon","coordinates":[[[91.6929341,26.1913006],[91.6932133,26.191304],[91.6931955,26.1911606],[91.6932868,26.190978],[91.6932029,26.1907868],[91.6931767,26.1906471],[91.6929797,26.1906574],[91.6929263,26.190869],[91.6928222,26.1909773],[91.6928821,26.1910737],[91.6929494,26.1911869],[91.6929341,26.1913006]]]}},{"type":"Feature","id":"way/158011014","properties":{"kind":"building","name":"Student Activity Center","osm_tags":{"building":"yes","leisure":"sports_centre","name":"Student Activity Center"}},"geometry":{"type":"Polygon","coordinates":[[[91.6956028,26.1932521],[91.6957234,26.1932505],[91.6957271,26.1934744],[91.6958576,26.1934727],[91.6959025,26.1935099],[91.6959802,26.1935089],[91.6960266,26.1934705],[91.6961384,26.193469],[91.6961346,26.1932403],[91.6959689,26.1932425],[91.695966,26.1930704],[91.6960042,26.193047],[91.6960031,26.192982],[91.6959642,26.1929548],[91.695961,26.1927599],[91.6958738,26.1926912],[91.695663,26.192694],[91.6956645,26.1927865],[91.6955952,26.1927874],[91.6956028,26.1932521]]]}},{"type":"Feature","id":"way/267002635","properties":{"kind":"building","name":"New Student Activity Center","osm_tags":{"building":"university","building:levels":"2","name":"New Student Activity Center"}},"geometry":{"type":"Polygon","coordinates":[[[91.6990277,26.1929746],[91.6993386,26.1929156],[91.6992095,26.1925321],[91.6991094,26.1925398],[91.699078,26.1922977],[91.6991392,26.1922435],[91.6991192,26.1921849],[91.6989027,26.1921484],[91.6988263,26.1921593],[91.6988303,26.1921901],[91.6988445,26.1922797],[91.6988775,26.192358],[91.6989174,26.1926188],[91.6989759,26.1928006],[91.6990277,26.1929746]]]}},{"type":"Feature","id":"way/363651727","properties":{"kind":"building","name":"Food Court","osm_tags":{"amenity":"restaurant","building":"yes","capacity":"200","cuisine":"regional","name":"Food Court"}},"geometry":{"type":"Polygon","coordinates":[[[91.6991722,26.1922235],[91.6992094,26.1923928],[91.6992494,26.1925903],[91.6993094,26.1928032],[91.6993666,26.1928237],[91.6994981,26.1927801],[91.6994324,26.1924826],[91.6994524,26.1924543],[91.6994409,26.1924133],[91.6994123,26.1924056],[91.6993866,26.1922619],[91.699338,26.1922389],[91.6993008,26.1921927],[91.6991808,26.1922004],[91.6991722,26.1922235]]]}},{"type":"Feature","id":"way/368852086","properties":{"kind":"building","name":"Brahmaputra Hostel","osm_tags":{"building":"dormitory","name":"Brahmaputra Hostel","smoking":"no"}},"geometry":{"type":"Polygon","coordinates":[[[91.6998011,26.1873999],[91.6980637,26.1857139],[91.6987112,26.185173],[91.6995967,26.1858775],[91.6998031,26.1860972],[91.7004921,26.1869115],[91.6999055,26.1874036],[91.6998011,26.1873999]]]}},{"type":"Feature","id":"way/405811283","properties":{"kind":"building","name":"Barak Hostel","osm_tags":{"building":"dormitory","name":"Barak Hostel"}},"geometry":{"type":"Polygon","coordinates":[[[91.7009968,26.189831],[91.701721,26.1899754],[91.70248,26.1901415],[91.702708,26.1893111],[91.7011121,26.1889573],[91.7009018,26.1898398],[91.7009968,26.189831]]]}},{"type":"Feature","id":"way/455100471","properties":{"kind":"building","name":"Dibang Hostel","osm_tags":{"addr:city":"Guwahati","addr:postcode":"781039","addr:street":"IIT Guwahati","building":"dormitory","building:levels":"4","description":"Students' Hostel","name":"Dibang Hostel"}},"geometry":{"type":"Polygon","coordinates":[[[91.695852,26.1879616],[91.6975149,26.1880146],[91.6974988,26.1870181],[91.6958412,26.1869941],[91.695852,26.1879616]]]}},{"type":"Feature","id":"way/517935377","properties":{"kind":"building","name":"Mechnical Workshop","osm_tags":{"building":"university","name":"Mechnical Workshop"}},"geometry":{"type":"Polygon","coordinates":[[[91.6894321,26.1875464],[91.6897735,26.1875308],[91.6897137,26.1864766],[91.6893723,26.1864922],[91.6894321,26.1875464]]]}},{"type":"Feature","id":"way/517935378","properties":{"kind":"building","name":"","osm_tags":{"building":"yes"}},"geometry":{"type":"Polygon","coordinates":[[[91.6895154,26.1845896],[91.6897524,26.1845878],[91.6897497,26.184306],[91.6895127,26.1843078],[91.6895154,26.1845896]]]}},{"type":"Feature","id":"way/640770642","properties":{"kind":"building","name":"Lohit Hostel","osm_tags":{"addr:housename":"Lohit Hostel","building":"dormitory","building:levels":"4","name":"Lohit Hostel"}},"geometry":{"type":"Polygon","coordinates":[[[91.6982006,26.1903806],[91.6988884,26.1903479],[91.6988311,26.1893987],[91.6989197,26.1893987],[91.6988884,26.1890808],[91.6987842,26.1890855],[91.6986748,26.1880568],[91.6979609,26.1881316],[91.6982006,26.1903806]]]}},{"type":"Feature","id":"way/640776537","properties":{"kind":"building","name":"General Gym","osm_tags":{"building":"yes","leisure":"fitness_centre","name":"General Gym"}},"geometry":{"type":"Polygon","coordinates":[[[91.6976438,26.1913241],[91.6977511,26.1913241],[91.6977565,26.1912423],[91.6979764,26.191223],[91.6979764,26.1911171],[91.6980462,26.1911171],[91.6980462,26.1909053],[91.6979603,26.1909101],[91.6979603,26.1908235],[91.6977619,26.1908235],[91.6977136,26.1908379],[91.6977189,26.191069],[91.6976438,26.1910738],[91.6976438,26.1913241]]]}},{"type":"Feature","id":"way/684576023","properties":{"kind":"building","name":"Conference Hall","osm_tags":{"building":"university","name":"Conference Hall"}},"geometry":{"type":"Polygon","coordinates":[[[91.6922122,26.1913528],[91.6927655,26.1912775],[91.6927579,26.1909453],[91.6925632,26.1909967],[91.6925556,26.1909282],[91.6923686,26.1909556],[91.6923686,26.1910309],[91.6921816,26.1910446],[91.6922122,26.1913528]]]}},{"type":"Feature","id":"way/684576024","properties":{"kind":"building","name":"Lecture Halls","osm_tags":{"building":"university","name":"Lecture Halls"}},"geometry":{"type":"Polygon","coordinates":[[[91.6912085,26.1892913],[91.6913955,26.1892811],[91.6914165,26.1892211],[91.6914651,26.1891843],[91.6915391,26.1892036],[91.6915646,26.1892714],[91.691758,26.1892571],[91.6917046,26.1886784],[91.6915233,26.1886903],[91.6914985,26.1887777],[91.6914451,26.1887982],[91.6914031,26.1887742],[91.6913688,26.1887023],[91.6911589,26.1887229],[91.6912085,26.1892913]]]}},{"type":"Feature","id":"way/912248048","properties":{"kind":"building","name":"Disang Hostel","osm_tags":{"building":"dormitory","name":"Disang Hostel","residential":"dormitory"}},"geometry":{"type":"Polygon","coordinates":[[[91.6958705,26.1869218],[91.6977728,26.1869218],[91.6977832,26.1861171],[91.6958741,26.1861159],[91.6958705,26.1869218]]]}},{"type":"Feature","id":"way/912248051","properties":{"kind":"building","name":"","osm_tags":{"building":"yes"}},"geometry":{"type":"Polygon","coordinates":[[[91.6943074,26.189155],[91.6943807,26.1891769],[91.6944459,26.1889868],[91.6943726,26.1889722],[91.6943074,26.189155]]]}},{"type":"Feature","id":"way/912248052","properties":{"kind":"building","name":"Planning and Management Section","osm_tags":{"building":"yes","name":"Planning and Management Section"}},"geometry":{"type":"Polygon","coordinates":[[[91.694522,26.1891038],[91.6946497,26.189116],[91.6947637,26.1890989],[91.6948697,26.1890624],[91.6948181,26.1887675],[91.6946578,26.1887748],[91.6945464,26.1888016],[91.694484,26.1888284],[91.694522,26.1891038]]]}},{"type":"Feature","id":"way/912248053","properties":{"kind":"building","name":"","osm_tags":{"building":"yes"}},"geometry":{"type":"Polygon","coordinates":[[[91.6929477,26.1880192],[91.693204,26.1880552],[91.6932874,26.1876091],[91.6930064,26.1875593],[91.6929477,26.1880192]]]}},{"type":"Feature","id":"way/912248054","properties":{"kind":"building","name":"Core 5","osm_tags":{"building":"yes","name":"Core 5"}},"geometry":{"type":"Polygon","coordinates":[[[91.6891221,26.1859446],[91.6892957,26.1859407],[91.6893001,26.1858784],[91.6893255,26.1858721],[91.6893651,26.1859051],[91.6894371,26.1859304],[91.6895063,26.1859292],[91.6895628,26.1859152],[91.6896151,26.1858683],[91.6896434,26.1858151],[91.6896547,26.1857301],[91.6896165,26.1856566],[91.6895784,26.1856287],[91.6895798,26.1855869],[91.689649,26.1855881],[91.6896575,26.1853904],[91.6891108,26.1853967],[91.6891136,26.185488],[91.6890825,26.185488],[91.6890882,26.1855615],[91.6891164,26.1855603],[91.6891249,26.1857859],[91.6890966,26.1857846],[91.6890952,26.1858531],[91.6891249,26.1858556],[91.6891221,26.1859446]]]}},{"type":"Feature","id":"way/912248055","properties":{"kind":"building","name":"","osm_tags":{"building":"yes"}},"geometry":{"type":"Polygon","coordinates":[[[91.6889784,26.1852147],[91.6895936,26.1852083],[91.6895792,26.1849952],[91.6892482,26.1850017],[91.6892302,26.184682],[91.688982,26.1846885],[91.6889784,26.1852147]]]}},{"type":"Feature","id":"way/912248056","properties":{"kind":"building","name":"","osm_tags":{"building":"yes"}},"geometry":{"type":"Polygon","coordinates":[[[91.6929011,26.186098],[91.6930936,26.1860489],[91.6929843,26.1858142],[91.6928084,26.1858676],[91.6929011,26.186098]]]}},{"type":"Feature","id":"way/912248057","properties":{"kind":"building","name":"","osm_tags":{"building":"yes"}},"geometry":{"type":"Polygon","coordinates":[[[91.694412,26.1858189],[91.6946297,26.1858086],[91.6946366,26.1858909],[91.6946045,26.18593],[91.6946091,26.186004],[91.6946664,26.186039],[91.6947558,26.1860205],[91.6947764,26.1859608],[91.6947466,26.1859012],[91.6947535,26.1858559],[91.6949575,26.18586],[91.6950491,26.1858621],[91.6950445,26.185786],[91.6951018,26.1857839],[91.6950995,26.1856606],[91.6950308,26.1856585],[91.6950308,26.1856071],[91.6947764,26.185603],[91.6947236,26.1855877],[91.6947466,26.1855454],[91.6947466,26.1854857],[91.6947237,26.1854487],[91.6946824,26.1854302],[91.6946343,26.1854343],[91.6945908,26.1854549],[91.6945839,26.1855042],[91.6946068,26.1855536],[91.694616,26.185714],[91.6943983,26.1857202],[91.694412,26.1858189]]]}},{"type":"Feature","id":"way/912248058","properties":{"kind":"building","name":"","osm_tags":{"amenity":"post_office","building":"yes"}},"geometry":{"type":"Polygon","coordinates":[[[91.696056,26.1834623],[91.6961091,26.1835316],[91.6961374,26.1835123],[91.6961562,26.1835385],[91.6962445,26.1834931],[91.6962291,26.1834554],[91.6962522,26.1834431],[91.6962034,26.1833739],[91.696056,26.1834623]]]}},{"type":"Feature","id":"way/1336870219","properties":{"kind":"building","name":"Gaurang Hostel","osm_tags":{"building":"dormitory","latitude":"26.1913613","longitude":"91.7008015","name":"Gaurang Hostel","operator":"IIT Guwahati","website":"https://www.iitg.ac.in/"}},"geometry":{"type":"Polygon","coordinates":[[[91.7012822,26.1921976],[91.7008843,26.1923332],[91.7004668,26.1921302],[91.7005419,26.1913119],[91.7013143,26.1913312],[91.7012822,26.1921976]]]}},{"type":"Feature","id":"way/44641257","properties":{"kind":"road","name":"","osm_tags":{"highway":"secondary","source":"Yahoo hires"}},"geometry":{"type":"LineString","coordinates":[[91.6800361,26.1810867],[91.6801167,26.1810324],[91.6802422,26.1809574],[91.6802937,26.1809182],[91.6803339,26.1808749],[91.6803726,26.1808271],[91.6804011,26.1807794],[91.6804218,26.1807252],[91.6804498,26.1806723],[91.680493,26.1806205],[91.6805478,26.1805836],[91.6807876,26.1804597],[91.6809076,26.1804088],[91.6809981,26.1803778],[91.6810757,26.1803572],[91.6811572,26.1803406],[91.6812476,26.1803355],[91.6813348,26.1803339],[91.681436,26.1803425],[91.6816136,26.1803756],[91.681809,26.1804202],[91.6819737,26.1804694],[91.6820513,26.1805039],[91.6821237,26.1805629],[91.6822513,26.1806932],[91.6823134,26.1807595],[91.6823906,26.1807893],[91.6831531,26.1808102],[91.6832338,26.1808189],[91.6833328,26.1808416],[91.6834678,26.1809043],[91.6835857,26.1809787],[91.6838432,26.1812175],[91.6841951,26.1815101],[91.6844429,26.18171],[91.6845883,26.1818173],[91.6847508,26.1819246],[91.6848921,26.1819869],[91.6850548,26.1820414],[91.6852914,26.1821031],[91.6855601,26.1821514],[91.6861281,26.1822254],[91.686523,26.1822536],[91.6875005,26.1822031],[91.6877056,26.1822129],[91.6878621,26.1822317],[91.6884947,26.1823239],[91.6887927,26.1823446],[91.6890649,26.1823468],[91.6894008,26.1823536],[91.6911713,26.182422],[91.6915964,26.1824291],[91.6920194,26.1824212],[91.6922437,26.1824081],[91.6924935,26.1823858],[91.6935591,26.1823101],[91.6940531,26.1822736],[91.6941479,26.1822731],[91.6942554,26.1822911],[91.6944204,26.1823452],[91.6946728,26.182452],[91.6948083,26.1825211],[91.6950913,26.1826655],[91.6952331,26.182738],[91.6953702,26.182808],[91.6956277,26.1829543],[91.696112,26.1832391],[91.6961887,26.1832812],[91.6963742,26.1833578],[91.6969363,26.1835613],[91.6973274,26.1837078],[91.697724,26.183851],[91.6986068,26.1841211],[91.6987937,26.1841837],[91.7012056,26.1850792],[91.7016513,26.1852406]]}},{"type":"Feature","id":"way/114813576","properties":{"kind":"road","name":"","osm_tags":{"access":"private","highway":"unclassified"}},"geometry":{"type":"LineString","coordinates":[[91.7002234,26.1908018],[91.7000763,26.1907427],[91.6999953,26.1907231],[91.6999097,26.1907219],[91.699329,26.1908101],[91.6986129,26.190941],[91.6984214,26.1909681],[91.6982902,26.1911091],[91.698252,26.1913382],[91.6982288,26.1915019],[91.6979661,26.1915062],[91.6976335,26.1915182],[91.6958217,26.1915455],[91.6944051,26.1915929],[91.691725,26.1916057],[91.6915595,26.1915847],[91.6911825,26.1920338],[91.690664,26.1924925],[91.6903891,26.1928802],[91.6903741,26.1929105],[91.6900666,26.1935297],[91.6899472,26.1937701],[91.6896133,26.1941842],[91.6891898,26.1946407],[91.6887135,26.1951541],[91.6883577,26.1955376],[91.688052,26.1958671],[91.6875611,26.196105],[91.687402,26.1961487]]}},{"type":"Feature","id":"way/114813577","properties":{"kind":"road","name":"","osm_tags":{"access":"private","highway":"service"}},"geometry":{"type":"LineString","coordinates":[[91.6966182,26.181969],[91.696496,26.1823615],[91.6964691,26.1824555],[91.6964551,26.1825496],[91.6964388,26.1826359],[91.6964053,26.1827222],[91.6961519,26.1831463],[91.696112,26.1832391]]}},{"type":"Feature","id":"way/121436089","properties":{"kind":"road","name":"","osm_tags":{"access":"private","highway":"service"}},"geometry":{"type":"LineString","coordinates":[[91.6944051,26.1915929],[91.6944115,26.1940204],[91.6944888,26.1950461],[91.6944711,26.1959527],[91.6941556,26.1960486],[91.6940361,26.196138],[91.6939764,26.1963346],[91.6940062,26.196549],[91.6939166,26.1966831],[91.6929903,26.1974159],[91.6929605,26.1976304],[91.6929897,26.1977877],[91.6930103,26.1978985],[91.6931198,26.1981397],[91.693329,26.1982649],[91.6935182,26.1984525],[91.6936776,26.1987474],[91.6938105,26.1991642],[91.6938203,26.1992491],[91.6938007,26.1994717],[91.6938301,26.1995507],[91.6939541,26.1996005],[91.6941825,26.1996386],[91.6943849,26.1996591],[91.6945905,26.1996357],[91.694783,26.1995712],[91.694969,26.1994717],[91.6950702,26.1993341],[91.6950898,26.1991876],[91.6950767,26.1990149],[91.6950833,26.1988831],[91.6951524,26.1987868],[91.6954912,26.198315],[91.6955826,26.1980954],[91.6956315,26.1979255],[91.6956609,26.1976444],[91.6956544,26.1974482],[91.6955793,26.1972198],[91.6953705,26.1968011],[91.6951877,26.1964438],[91.6950898,26.1964145],[91.6949266,26.1963969],[91.69477,26.1963501],[91.6946394,26.1962798],[91.6945676,26.1961627],[91.6944697,26.1960602],[91.6944711,26.1959527]]}},{"type":"Feature","id":"way/121436091","properties":{"kind":"road","name":"","osm_tags":{"access":"private","highway":"service"}},"geometry":{"type":"LineString","coordinates":[[91.6944115,26.1940204],[91.6938694,26.1940025],[91.693451,26.1939757],[91.6933614,26.1938506],[91.6933017,26.1937434],[91.6931323,26.1936272],[91.6928933,26.1934663],[91.6927638,26.1933412],[91.692724,26.192948],[91.692475,26.1928944],[91.6921065,26.1928229],[91.6918774,26.1927603],[91.6915687,26.1927603],[91.69123,26.1928229],[91.6911404,26.1930731],[91.6910707,26.1933859],[91.6911803,26.1935646],[91.6914193,26.1937076],[91.6915687,26.1938059],[91.6915288,26.1939757],[91.6912699,26.1941098],[91.6910408,26.1943779],[91.6909113,26.1946013],[91.6908217,26.1948962],[91.6908317,26.1951464],[91.6908715,26.1952984],[91.6910236,26.1952843],[91.6911409,26.1952294],[91.6912174,26.1951928],[91.6913551,26.1952019],[91.6914825,26.1952385],[91.6916151,26.1952157],[91.6917375,26.1951699],[91.691865,26.1952019],[91.6918905,26.19533],[91.6918905,26.195449],[91.6919619,26.1956229],[91.6920537,26.1957602],[91.6921455,26.1957602],[91.6923086,26.1956915],[91.6924922,26.1957007],[91.6925942,26.1957922],[91.6926503,26.1959752],[91.6927217,26.1960942],[91.6928339,26.1961445],[91.6929308,26.1960759],[91.6929461,26.1959615],[91.6929359,26.1958379],[91.6929919,26.1957144],[91.6930531,26.1956092],[91.6931092,26.1955405],[91.6931551,26.1954444],[91.69315,26.1953255],[91.693099,26.1952248],[91.6929614,26.1951699],[91.6928033,26.1951333],[91.6926911,26.1950692],[91.6926503,26.1949914],[91.6927013,26.1948725],[91.6927625,26.1947627],[91.6927982,26.1946666],[91.6927931,26.1945842],[91.6927115,26.194511],[91.6925738,26.1944973],[91.6924769,26.1944149],[91.692431,26.1943417],[91.6923902,26.1942227],[91.6924004,26.1941267],[91.6923851,26.1940077],[91.6922831,26.1939208],[91.6921557,26.193875],[91.6920486,26.193907],[91.692018,26.1940031],[91.6920537,26.1941129],[91.6920639,26.1942136],[91.692018,26.1943509],[91.6919874,26.194479],[91.6920486,26.1946117],[91.6922016,26.1946895],[91.6923443,26.1947444],[91.6924412,26.1947261],[91.6924769,26.1946483],[91.6924055,26.1945613],[91.6923137,26.1944836],[91.6922168,26.1944332]]}},{"type":"Feature","id":"way/121436092","properties":{"kind":"road","name":"","osm_tags":{"access":"private","highway":"unclassified"}},"geometry":{"type":"LineString","coordinates":[[91.6982288,26.1915019],[91.6984179,26.1917973],[91.6985219,26.1919998],[91.6986097,26.1921708],[91.6987738,26.1925829],[91.6988651,26.1929685],[91.6990962,26.1943774],[91.6990505,26.1946242],[91.6990705,26.1952005],[91.6989557,26.1956058],[91.6988245,26.1958465]]}},{"type":"Feature","id":"way/121436095","properties":{"kind":"road","name":"","osm_tags":{"access":"private","highway":"service"}},"geometry":{"type":"LineString","coordinates":[[91.7006365,26.1875004],[91.7000166,26.1874987],[91.6999113,26.1874984],[91.6990766,26.187518],[91.6990084,26.1875282],[91.6989206,26.1875512],[91.6987353,26.1876279],[91.6979643,26.1879572],[91.6978843,26.1879912],[91.697763,26.1880294],[91.6976459,26.1880521],[91.6975354,26.188057],[91.6969645,26.1880466],[91.6963171,26.1880348],[91.6957522,26.188007]]}},{"type":"Feature","id":"way/121436096","properties":{"kind":"road","name":"","osm_tags":{"highway":"residential"}},"geometry":{"type":"LineString","coordinates":[[91.7008862,26.1867244],[91.7010569,26.1859873],[91.7012056,26.1850792]]}},{"type":"Feature","id":"way/121436097","properties":{"kind":"road","name":"","osm_tags":{"access":"private","highway":"service"}},"geometry":{"type":"LineString","coordinates":[[91.6907061,26.1884505],[91.6908513,26.1884024],[91.6911939,26.1883595],[91.6915775,26.1883642],[91.6927927,26.1883363]]}},{"type":"Feature","id":"way/121436102","properties":{"kind":"road","name":"","osm_tags":{"access":"private","highway":"unclassified"}},"geometry":{"type":"LineString","coordinates":[[91.69558,26.1840225],[91.6950468,26.1843197],[91.6948126,26.1844227],[91.6945783,26.1844891],[91.694382,26.1844942],[91.6942113,26.1844901],[91.6939879,26.1844628],[91.6938359,26.184431],[91.6935556,26.1843257],[91.6934353,26.1843021],[91.69327,26.1842963],[91.6931676,26.1842953],[91.6930908,26.1843058],[91.6930253,26.184333],[91.6929602,26.1843499],[91.6928702,26.1843421],[91.6927606,26.1843221],[91.6926655,26.1842962],[91.6925743,26.1842506],[91.6924131,26.1841611],[91.6923082,26.1840979],[91.692269,26.1840855],[91.6922333,26.1840798],[91.6922086,26.1840758],[91.6921184,26.1840632],[91.6920585,26.1840451],[91.6919121,26.1839812],[91.6918585,26.183961],[91.6918018,26.1839464],[91.691711,26.183937],[91.691176,26.1839496],[91.6911055,26.183967],[91.6910532,26.1839869],[91.6909081,26.1840541],[91.6908631,26.1840659],[91.690829,26.1840692],[91.6907874,26.1840705],[91.6899886,26.1840872],[91.6899392,26.1841139],[91.6899199,26.1841308],[91.6899009,26.1841642],[91.689894,26.1841976],[91.6898905,26.1843305],[91.6899005,26.1855491],[91.6899003,26.1861966],[91.6899782,26.187823],[91.6899842,26.1879481],[91.6899986,26.1880304],[91.6900258,26.1881128],[91.6902601,26.1882162],[91.6905443,26.1883379],[91.6906359,26.1883846],[91.6907061,26.1884505],[91.6907655,26.1885681],[91.6907986,26.1887064],[91.6908151,26.1888318],[91.6908296,26.1889933],[91.6908447,26.1891527],[91.6908678,26.1893076],[91.690916,26.1895945],[91.6909817,26.1898736],[91.6909791,26.1899479],[91.6908737,26.1907009],[91.691043,26.1910584],[91.6913318,26.1914874],[91.6915595,26.1915847]]}},{"type":"Feature","id":"way/121436113","properties":{"kind":"road","name":"","osm_tags":{"access":"private","highway":"service","oneway":"yes"}},"geometry":{"type":"LineString","coordinates":[[91.6913608,26.1861735],[91.6913751,26.1862258],[91.6914084,26.1862706],[91.6914568,26.1863025],[91.6915145,26.1863176],[91.6915744,26.1863141],[91.6916293,26.1862924],[91.6916727,26.1862551],[91.6916993,26.1862068],[91.6917059,26.1861533],[91.6916916,26.1861009],[91.6916583,26.1860561],[91.6916099,26.1860242],[91.6915522,26.1860091],[91.6914923,26.1860127],[91.6914373,26.1860343],[91.691394,26.1860716],[91.6913674,26.1861199],[91.6913608,26.1861735]]}},{"type":"Feature","id":"way/121436117","properties":{"kind":"road","name":"","osm_tags":{"access":"private","highway":"service"}},"geometry":{"type":"LineString","coordinates":[[91.695934,26.1836962],[91.6965321,26.1839229],[91.6984657,26.1848539],[91.6988156,26.1850646],[91.6991504,26.1852662],[91.6995609,26.1855764],[91.700008,26.1860817],[91.7005135,26.186722],[91.7006106,26.1868546],[91.7007127,26.1869876],[91.7007366,26.1870383],[91.700733,26.1870829],[91.7006729,26.1873585],[91.7006365,26.1875004],[91.7005482,26.1880697],[91.700505,26.1887034],[91.7004943,26.1887853],[91.7004004,26.1890573],[91.7003577,26.1891895],[91.7003279,26.1893101],[91.7001118,26.1904852],[91.7000763,26.1907427]]}},{"type":"Feature","id":"way/121436122","properties":{"kind":"road","name":"","osm_tags":{"access":"private","highway":"unclassified"}},"geometry":{"type":"LineString","coordinates":[[91.7013891,26.1930422],[91.7008632,26.1930781],[91.7005943,26.1931139],[91.7004548,26.1932837],[91.7004449,26.1935339],[91.7008632,26.194651],[91.7006573,26.1959207]]}},{"type":"Feature","id":"way/121436125","properties":{"kind":"road","name":"","osm_tags":{"access":"private","highway":"service"}},"geometry":{"type":"LineString","coordinates":[[91.6900666,26.1935297],[91.6902832,26.1936628],[91.6905222,26.1936985],[91.6906881,26.193676],[91.690786,26.1936687],[91.6908635,26.1937199],[91.6909084,26.1938407],[91.690941,26.1940091],[91.690888,26.1940823],[91.6907901,26.1941518],[91.6906351,26.1942653],[91.6905535,26.1944008],[91.690529,26.1945399],[91.6905535,26.194679],[91.6906065,26.1947778],[91.6907085,26.1948364],[91.6908217,26.1948962]]}},{"type":"Feature","id":"way/121436137","properties":{"kind":"road","name":"","osm_tags":{"access":"private","highway":"service"}},"geometry":{"type":"LineString","coordinates":[[91.6913335,26.1896924],[91.6913179,26.1897557],[91.6913443,26.1898272]]}},{"type":"Feature","id":"way/121436146","properties":{"kind":"road","name":"","osm_tags":{"access":"private","highway":"service"}},"geometry":{"type":"LineString","coordinates":[[91.6929602,26.1843499],[91.6929151,26.1844285],[91.6928977,26.1845296],[91.6928917,26.1847576],[91.6928924,26.1848132],[91.6928802,26.1848654],[91.6928467,26.184921],[91.6926962,26.1851922],[91.692676,26.1852557],[91.6926619,26.1853709],[91.6926641,26.1854489],[91.6926968,26.1856176],[91.6927415,26.1857917],[91.692777,26.1858974],[91.6928643,26.1861554],[91.6929144,26.1862878],[91.6929761,26.1864475],[91.693019,26.1865731],[91.693035,26.1866612],[91.6930325,26.1867559],[91.6930193,26.1868492],[91.6929352,26.1873513],[91.6928538,26.1878936],[91.6927927,26.1883363],[91.6928379,26.1884462],[91.6929132,26.1885502],[91.6929934,26.1886593],[91.6930823,26.1887433],[91.6932693,26.1888571],[91.6936811,26.1890527],[91.6939885,26.1891759],[91.6941565,26.1892428],[91.694306,26.1892851],[91.6944487,26.1893125],[91.694578,26.1893127],[91.6947159,26.1892937],[91.6951997,26.1891993],[91.6957402,26.1891092]]}},{"type":"Feature","id":"way/121436148","properties":{"kind":"road","name":"","osm_tags":{"access":"private","highway":"service"}},"geometry":{"type":"LineString","coordinates":[[91.6919794,26.1896725],[91.6918411,26.1895246],[91.6915711,26.1895917],[91.6913335,26.1896924],[91.6911821,26.1897604],[91.6911543,26.1897839]]}},{"type":"Feature","id":"way/121436149","properties":{"kind":"road","name":"","osm_tags":{"access":"private","highway":"service"}},"geometry":{"type":"LineString","coordinates":[[91.6944888,26.1950461],[91.6946561,26.1949989],[91.6949366,26.1949017],[91.6952106,26.1948616],[91.6955039,26.1948788],[91.6957461,26.1949646],[91.6959883,26.1950847],[91.6961477,26.195262],[91.6961859,26.1955308],[91.6961923,26.1958511],[91.6961847,26.1959114]]}},{"type":"Feature","id":"way/121436151","properties":{"kind":"road","name":"","osm_tags":{"access":"private","highway":"service"}},"geometry":{"type":"LineString","coordinates":[[91.6909817,26.1898736],[91.6911543,26.1897839],[91.6913443,26.1898272],[91.6914803,26.1898582],[91.6916396,26.1898067],[91.6919794,26.1896725]]}},{"type":"Feature","id":"way/508333061","properties":{"kind":"road","name":"","osm_tags":{"highway":"unclassified"}},"geometry":{"type":"LineString","coordinates":[[91.705333,26.1962247],[91.7052058,26.1947085],[91.705238,26.1945448],[91.7053184,26.1943619],[91.7053882,26.194203],[91.7055223,26.1940346],[91.7057261,26.1938805],[91.705989,26.1937506],[91.7062626,26.1936399],[91.7065898,26.1935965],[91.7067722,26.1936062],[91.7070082,26.1937987],[91.707373,26.1941212],[91.7076251,26.1944485]]}},{"type":"Feature","id":"way/508333062","properties":{"kind":"road","name":"","osm_tags":{"highway":"residential"}},"geometry":{"type":"LineString","coordinates":[[91.692724,26.192948],[91.6927979,26.192836],[91.6928623,26.1927277],[91.6929347,26.1926483],[91.6930232,26.1925472],[91.692991,26.1924654],[91.692932,26.1924052],[91.6928998,26.192398]]}},{"type":"Feature","id":"way/508333083","properties":{"kind":"road","name":"","osm_tags":{"highway":"residential"}},"geometry":{"type":"LineString","coordinates":[[91.6994176,26.192091],[91.6991896,26.1921078],[91.6990796,26.1921247],[91.6990421,26.1920982],[91.6989992,26.1920862],[91.6989053,26.1920958],[91.6987068,26.1921271],[91.69868,26.1921391],[91.6986097,26.1921708]]}},{"type":"Feature","id":"way/508333084","properties":{"kind":"road","name":"","osm_tags":{"highway":"residential"}},"geometry":{"type":"LineString","coordinates":[[91.6993747,26.1913184],[91.6994176,26.192091],[91.6995437,26.1928371]]}},{"type":"Feature","id":"way/508333085","properties":{"kind":"road","name":"","osm_tags":{"highway":"residential","lit":"yes","noname":"yes","sidewalk":"no","surface":"paving_stones"}},"geometry":{"type":"LineString","coordinates":[[91.6958217,26.1915455],[91.6958173,26.1923322],[91.6958156,26.192635],[91.6958154,26.1926783]]}},{"type":"Feature","id":"way/508333086","properties":{"kind":"road","name":"","osm_tags":{"highway":"residential","surface":"asphalt"}},"geometry":{"type":"LineString","coordinates":[[91.6889612,26.1944377],[91.6897657,26.1931476],[91.689881,26.1930754],[91.6900017,26.1930128],[91.69016,26.1929574],[91.6902019,26.1929462],[91.6902941,26.1929213],[91.6903741,26.1929105]]}},{"type":"Feature","id":"way/508333087","properties":{"kind":"road","name":"","osm_tags":{"highway":"residential","surface":"asphalt"}},"geometry":{"type":"LineString","coordinates":[[91.6878828,26.1931524],[91.6877513,26.1931115],[91.6876199,26.1930272],[91.6874107,26.1928876],[91.6873141,26.1927938],[91.6872471,26.1926686],[91.6872068,26.1925603],[91.6871908,26.1924304]]}},{"type":"Feature","id":"way/508333088","properties":{"kind":"road","name":"","osm_tags":{"highway":"residential","surface":"asphalt"}},"geometry":{"type":"LineString","coordinates":[[91.6891898,26.1946407],[91.6890388,26.1945002],[91.6889612,26.1944377],[91.6888832,26.194375],[91.6887277,26.1943197],[91.6885399,26.1942451],[91.6883951,26.1941512],[91.6883226,26.1940718],[91.6882207,26.1939081],[91.6880437,26.1935351],[91.6879069,26.1932463],[91.6878828,26.1931524],[91.6878667,26.1928949],[91.6878506,26.1927312],[91.6878613,26.1926518],[91.6879149,26.1925122],[91.6879686,26.1923461],[91.6880035,26.1921608],[91.6880088,26.1919634],[91.6880303,26.191754],[91.6881161,26.1916361],[91.6882797,26.1914797],[91.6884916,26.1911884]]}},{"type":"Feature","id":"way/508333089","properties":{"kind":"road","name":"","osm_tags":{"highway":"residential","surface":"asphalt"}},"geometry":{"type":"LineString","coordinates":[[91.6870529,26.1943694],[91.6872417,26.1942017],[91.6876762,26.1938431],[91.6879203,26.1936386],[91.6880437,26.1935351]]}},{"type":"Feature","id":"way/508333090","properties":{"kind":"road","name":"","osm_tags":{"highway":"unclassified"}},"geometry":{"type":"LineString","coordinates":[[91.6883577,26.1955376],[91.6882261,26.1954942],[91.6881295,26.1954629],[91.6880276,26.195446],[91.6878828,26.1954605],[91.6877218,26.195511],[91.6875931,26.1955447],[91.687526,26.1955495],[91.687467,26.1955399],[91.6874295,26.1955086],[91.6873892,26.1954171],[91.6872095,26.1949358],[91.6870808,26.1945315],[91.6870593,26.1944111],[91.6870529,26.1943694],[91.6870379,26.1942715],[91.6870245,26.1940622],[91.6869869,26.1938648],[91.6869279,26.1935423],[91.6869011,26.193369],[91.6868743,26.1929286],[91.686767,26.1924015],[91.6866889,26.1920549],[91.6866583,26.1919151],[91.6866547,26.1918174],[91.6866699,26.1917007],[91.6867067,26.1915463],[91.6867389,26.1914409],[91.6867923,26.191332],[91.6868158,26.1912623],[91.6868406,26.1911536],[91.6868545,26.1910449],[91.686868,26.1908275],[91.686872,26.1907423],[91.6868869,26.1906506],[91.6869311,26.1904813],[91.6869898,26.1902786],[91.6869968,26.1902041],[91.686993,26.1901328],[91.6869686,26.1900756],[91.6869366,26.1900344],[91.6867699,26.1898992],[91.6867252,26.189851],[91.6867082,26.1898125],[91.6867095,26.1897735],[91.6867197,26.1897369],[91.6867427,26.1896934],[91.6868766,26.1894781],[91.6869251,26.1894186],[91.6869902,26.1893556],[91.6870444,26.1893081],[91.687091,26.1892606],[91.6871497,26.1891839],[91.6872339,26.1890202],[91.6872824,26.1889458],[91.6873181,26.1889187],[91.6873639,26.1888995],[91.6874151,26.1888851],[91.6874783,26.1888886],[91.6877302,26.1889412],[91.6878603,26.1889698],[91.6879088,26.1889738],[91.6879573,26.1889665],[91.6880146,26.1889409],[91.6880973,26.1888981],[91.6881691,26.1888553],[91.6882546,26.1887935],[91.6883222,26.1887099],[91.6884217,26.188529],[91.6884434,26.1884733],[91.6884445,26.1884223],[91.6884366,26.1883859],[91.6884179,26.1883527],[91.6883605,26.1883035],[91.6882565,26.1882215],[91.6882146,26.1881788],[91.6881663,26.1881101],[91.6881105,26.188009],[91.6880579,26.1879031],[91.6880386,26.1878463],[91.6880343,26.1877943],[91.6880483,26.1877443],[91.6880711,26.1876949],[91.688198,26.1875298],[91.6882299,26.1875012],[91.6882754,26.1874807],[91.6883194,26.1874862],[91.6883725,26.1875134],[91.6884969,26.1876605],[91.6885455,26.1876972],[91.6886198,26.1877136],[91.688679,26.1877054],[91.6887381,26.18767],[91.6888216,26.1876128],[91.688902,26.1875774],[91.6889657,26.1875733],[91.6890522,26.187572],[91.6891372,26.1875788],[91.6892146,26.1876019],[91.689269,26.1876234],[91.6893208,26.1876564],[91.6895431,26.187817],[91.6896373,26.1878812],[91.6897054,26.1879314],[91.689768,26.1879818],[91.6898164,26.1880173],[91.6900258,26.1881128]]}},{"type":"Feature","id":"way/508333091","properties":{"kind":"road","name":"","osm_tags":{"highway":"residential"}},"geometry":{"type":"LineString","coordinates":[[91.6847022,26.1918948],[91.684825,26.1919057],[91.6849243,26.1919057],[91.6849672,26.191949],[91.6849913,26.1919851],[91.685045,26.1920284],[91.6850691,26.1920838],[91.6851201,26.1921078],[91.6851845,26.1921054],[91.6852757,26.192103],[91.6852998,26.1921464],[91.6853132,26.1922426],[91.6853239,26.1923437],[91.6852783,26.1923967],[91.685222,26.1924255],[91.6852006,26.1924737],[91.6852247,26.1925363],[91.6854205,26.1928684],[91.6854849,26.1929358],[91.6855734,26.1929382],[91.6856431,26.1929358],[91.6856673,26.1929695],[91.6857102,26.1930922],[91.6858872,26.1938985],[91.6859757,26.1943365],[91.6860159,26.1945989],[91.6860508,26.1949502],[91.686024,26.195073],[91.6859738,26.1951892]]}},{"type":"Feature","id":"way/508333092","properties":{"kind":"road","name":"","osm_tags":{"highway":"residential"}},"geometry":{"type":"LineString","coordinates":[[91.6843373,26.1928426],[91.6843681,26.1927649],[91.6843557,26.192659],[91.6843637,26.1924881],[91.6843905,26.1924183],[91.6844227,26.1923221],[91.6845059,26.1921752],[91.6846051,26.1920597],[91.6847022,26.1918948],[91.6847661,26.1917737],[91.6849296,26.1914388],[91.6850048,26.1912245],[91.6850335,26.1911045]]}},{"type":"Feature","id":"way/508333093","properties":{"kind":"road","name":"","osm_tags":{"highway":"residential"}},"geometry":{"type":"LineString","coordinates":[[91.6861165,26.1963855],[91.6861152,26.1960766],[91.6860533,26.1955131],[91.6860218,26.1953445],[91.6859738,26.1951892],[91.6859516,26.1951211],[91.6858923,26.194937],[91.6858295,26.1947732],[91.6857376,26.1945914],[91.6855936,26.1943733],[91.6854316,26.1941406],[91.6852429,26.1939108],[91.685047,26.193684],[91.6848063,26.1934171],[91.6845788,26.1931449],[91.6844718,26.1929985],[91.6843373,26.1928426],[91.6837595,26.1921851],[91.6837088,26.1920886],[91.6836469,26.1919081],[91.6835805,26.1917204],[91.6835596,26.1916391],[91.6835363,26.1915326],[91.6835215,26.1913088],[91.6835109,26.1910158],[91.6835303,26.1907898],[91.6835807,26.1904784],[91.6836921,26.1901158],[91.6838265,26.1897705],[91.6838846,26.1895395],[91.683907,26.1893936],[91.6839054,26.1892678],[91.6838909,26.1891512],[91.68387,26.1890291],[91.6838037,26.1887756],[91.683731,26.1885003],[91.6832215,26.1873852],[91.6828749,26.1865601],[91.6827244,26.1862064],[91.682491,26.1856752],[91.6824318,26.1855389],[91.68236,26.1855063],[91.6821355,26.1854937]]}},{"type":"Feature","id":"way/510351985","properties":{"kind":"road","name":"","osm_tags":{"highway":"residential"}},"geometry":{"type":"LineString","coordinates":[[91.682827,26.1834592],[91.682919,26.1835169],[91.6830294,26.1835446],[91.6831273,26.1835446],[91.6833657,26.1835189],[91.6834824,26.1835117],[91.6835812,26.1835137],[91.6838215,26.1835252],[91.6842571,26.1835724],[91.6847184,26.1836388],[91.6851046,26.1837158],[91.6857323,26.1838458],[91.6858879,26.1838891],[91.6861722,26.1840288],[91.686269,26.1840747],[91.6863224,26.1840865],[91.6863757,26.1840879],[91.6865155,26.1840673],[91.6866314,26.1840606],[91.6866744,26.1840718],[91.6867083,26.1840938],[91.6867313,26.1841256],[91.6867391,26.1841574],[91.6867915,26.1844781],[91.6868931,26.1852772],[91.686917,26.1857776],[91.6869171,26.1858675],[91.6869044,26.1859612],[91.6868482,26.1863297],[91.6868233,26.1864535],[91.6867966,26.1866802],[91.6868,26.1870345],[91.6868141,26.1873618],[91.6867691,26.1878927],[91.686705,26.1884357],[91.6866765,26.1886011],[91.6866786,26.1886649],[91.686707,26.1886996],[91.6868884,26.1888025]]}},{"type":"Feature","id":"way/510351986","properties":{"kind":"road","name":"","osm_tags":{"highway":"residential"}},"geometry":{"type":"LineString","coordinates":[[91.6894008,26.1823536],[91.6892706,26.1826813],[91.6892183,26.1828139],[91.6891859,26.18286],[91.6891414,26.1828843],[91.6890979,26.1828816],[91.6888516,26.1828301],[91.6887753,26.1828232],[91.6886882,26.1828196],[91.6883006,26.1828364],[91.6880904,26.1828573],[91.6878651,26.1829137],[91.6877547,26.1829517],[91.6876538,26.1829977],[91.6875861,26.183048],[91.6873316,26.1833854],[91.6872382,26.1834985],[91.6871962,26.1835586],[91.6871693,26.183609],[91.687146,26.1836705],[91.6871525,26.183701],[91.6871832,26.183731],[91.687246,26.1837734],[91.6872888,26.1838058],[91.6873113,26.1838325],[91.6873316,26.1838631],[91.6873596,26.1839658],[91.6874862,26.1847201],[91.687514,26.1850365],[91.6875517,26.1854328],[91.6876017,26.1857676],[91.6876331,26.1859347],[91.6876843,26.1860807],[91.6877301,26.1861659],[91.6877721,26.1862095],[91.6878249,26.1862532],[91.6879324,26.1863728],[91.6879944,26.1864626],[91.6880191,26.1865635],[91.6880341,26.1867162],[91.6880202,26.1868779],[91.6879637,26.1871054],[91.6879002,26.1872999],[91.6878639,26.1873666],[91.6878314,26.1874156],[91.6877318,26.1875661],[91.6876107,26.1877432],[91.6875935,26.1878087],[91.6875933,26.1878904],[91.6875728,26.1879858],[91.6875197,26.1881231],[91.6874521,26.1882668],[91.6873961,26.1883443],[91.6872218,26.1884876],[91.6871658,26.1885316],[91.6870467,26.1886468],[91.6868884,26.1888025],[91.6867548,26.1889339],[91.6866381,26.1890638],[91.686547,26.1891811],[91.6863952,26.189355]]}},{"type":"Feature","id":"way/510355579","properties":{"kind":"road","name":"","osm_tags":{"highway":"residential"}},"geometry":{"type":"LineString","coordinates":[[91.686523,26.1822536],[91.6864588,26.1826776],[91.6864356,26.1827729],[91.6862597,26.1831185],[91.686221,26.183147],[91.6861902,26.1831596],[91.6861568,26.1831584],[91.6860441,26.1831195],[91.6858216,26.1830564],[91.6857349,26.1830294],[91.6849987,26.1829039],[91.6840451,26.182747],[91.6840085,26.1827304],[91.683981,26.1826951],[91.6838378,26.1820978],[91.6838191,26.1820622],[91.6837911,26.1820308],[91.683742,26.1820098],[91.6836813,26.1820035],[91.6834014,26.1820131]]}},{"type":"Feature","id":"way/510355581","properties":{"kind":"road","name":"","osm_tags":{"highway":"residential"}},"geometry":{"type":"LineString","coordinates":[[91.682919,26.1835169],[91.682935,26.1836539],[91.6829499,26.1837551],[91.6829702,26.1837794],[91.6830147,26.1837879],[91.6830669,26.1837872],[91.6833074,26.1837008],[91.6833614,26.183696],[91.6834026,26.1837046],[91.6836342,26.183831],[91.6838273,26.1839275],[91.6838692,26.1839757],[91.6839147,26.1840463],[91.6839497,26.1841284],[91.6839595,26.1842104],[91.683943,26.1844145],[91.6839438,26.184502],[91.6839518,26.1845959],[91.6839689,26.184745],[91.6839775,26.1848141],[91.6839924,26.1848775],[91.6840727,26.1851125],[91.6841005,26.1852304],[91.6841641,26.1855638],[91.6841898,26.1856466],[91.6842138,26.1856928],[91.6842468,26.1857115],[91.6843068,26.1857153],[91.6844358,26.1856713],[91.6847245,26.1855831],[91.6850948,26.1854962],[91.6853298,26.1854498],[91.6856873,26.1854034],[91.6857597,26.1853995],[91.6858296,26.1854071],[91.6858703,26.1854235],[91.6858906,26.1854399],[91.6859068,26.1855019],[91.6858987,26.1860818],[91.6859058,26.1861358],[91.6859447,26.1861739],[91.6860119,26.1861993],[91.6860296,26.1862438],[91.686065,26.1870536],[91.6860544,26.1871044],[91.6860226,26.1871394],[91.6857571,26.187187],[91.6857253,26.1872156],[91.6857253,26.1872664],[91.6857391,26.1873467],[91.6857642,26.1874316],[91.6858102,26.187692],[91.6858162,26.1879016],[91.6858047,26.1880763],[91.6857844,26.1881888],[91.6857579,26.1883942],[91.6857566,26.1884773],[91.6857616,26.1886026],[91.6857819,26.1887559],[91.6857642,26.1889161],[91.6857034,26.1891719],[91.6856621,26.1892464],[91.6856205,26.189299],[91.6855991,26.1893499],[91.6855849,26.1894341],[91.6855954,26.1895057],[91.6856172,26.1895718],[91.6857227,26.1897208],[91.6857387,26.1897743],[91.6857295,26.1898251],[91.6856896,26.1898535],[91.685389,26.1899596],[91.6852789,26.1900069],[91.6852345,26.1900426],[91.6852158,26.1900824],[91.6852029,26.1902211],[91.6852807,26.1904339]]}},{"type":"Feature","id":"way/510355594","properties":{"kind":"road","name":"","osm_tags":{"highway":"residential"}},"geometry":{"type":"LineString","coordinates":[[91.7063673,26.1867431],[91.7063189,26.1872345],[91.7062979,26.1873406],[91.7062587,26.1874468],[91.7062154,26.1875709],[91.7061516,26.187695],[91.7060922,26.1878093],[91.706074,26.187878],[91.7060659,26.1879559],[91.7060752,26.1885879],[91.7060598,26.1886795],[91.7060322,26.1887711],[91.7059463,26.1889876],[91.705879,26.1891496],[91.7058118,26.1894068],[91.7057911,26.189586],[91.7057794,26.189743],[91.7057713,26.1898751],[91.7057314,26.1901327],[91.7056884,26.1903713],[91.7056287,26.1905338],[91.7055666,26.1906481],[91.7054508,26.1907597],[91.7053482,26.1908073],[91.7052809,26.1908582],[91.7052278,26.1909344],[91.7049695,26.1914266],[91.7048385,26.1916076]]}},{"type":"Feature","id":"way/510355602","properties":{"kind":"road","name":"","osm_tags":{"highway":"residential"}},"geometry":{"type":"LineString","coordinates":[[91.6987937,26.1841837],[91.6989928,26.1834953]]}},{"type":"Feature","id":"way/510355603","properties":{"kind":"road","name":"","osm_tags":{"highway":"residential"}},"geometry":{"type":"LineString","coordinates":[[91.7024414,26.1855228],[91.7025562,26.1849727],[91.7028652,26.1837236],[91.7030128,26.1832101],[91.7030651,26.1830008]]}},{"type":"Feature","id":"way/510355604","properties":{"kind":"road","name":"","osm_tags":{"highway":"residential"}},"geometry":{"type":"LineString","coordinates":[[91.7028652,26.1837236],[91.7037171,26.1837976],[91.7043081,26.183823],[91.7048787,26.1838366]]}},{"type":"Feature","id":"way/510383892","properties":{"kind":"road","name":"","osm_tags":{"highway":"residential"}},"geometry":{"type":"LineString","coordinates":[[91.7024414,26.1855228],[91.7023558,26.1858966],[91.7022827,26.1861691],[91.7022446,26.1863113],[91.7021321,26.186834],[91.7021182,26.186946],[91.7021178,26.1870648],[91.7020851,26.1874763],[91.7020642,26.1875127],[91.7020244,26.1875218],[91.7019101,26.1875075],[91.7016939,26.1874767],[91.7015179,26.1874444]]}},{"type":"Feature","id":"way/510383893","properties":{"kind":"road","name":"","osm_tags":{"highway":"residential"}},"geometry":{"type":"LineString","coordinates":[[91.7038302,26.1871443],[91.7025454,26.1869648]]}},{"type":"Feature","id":"way/510383894","properties":{"kind":"road","name":"","osm_tags":{"highway":"residential"}},"geometry":{"type":"LineString","coordinates":[[91.7032475,26.1858223],[91.7030816,26.1862061],[91.7030794,26.1862308],[91.7030898,26.1862468],[91.703114,26.1862639],[91.7036217,26.1864004]]}},{"type":"Feature","id":"way/510405725","properties":{"kind":"road","name":"","osm_tags":{"highway":"residential"}},"geometry":{"type":"LineString","coordinates":[[91.6848391,26.1875022],[91.6852802,26.1874523],[91.6857391,26.1873467]]}},{"type":"Feature","id":"way/517941863","properties":{"kind":"road","name":"","osm_tags":{"highway":"unclassified"}},"geometry":{"type":"LineString","coordinates":[[91.7014094,26.1910859],[91.7015829,26.1911015],[91.7018753,26.1910654],[91.7020336,26.1910461],[91.7023715,26.1910245],[91.7026934,26.1910943],[91.702916,26.1911568],[91.7031333,26.1911881]]}},{"type":"Feature","id":"way/517941865","properties":{"kind":"road","name":"","osm_tags":{"access":"private","highway":"unclassified","lit":"yes","oneway":"yes","sidewalk":"no","surface":"asphalt"}},"geometry":{"type":"LineString","coordinates":[[91.6957754,26.1840904],[91.6958239,26.1840713],[91.695864,26.1840402],[91.695892,26.1839998],[91.6959055,26.1839539],[91.6959032,26.1839063],[91.6958853,26.1838616],[91.6958508,26.1838212],[91.6958038,26.1837926],[91.6957491,26.1837789],[91.6956925,26.1837814],[91.6956395,26.1837998],[91.6955958,26.1838323],[91.6955658,26.1838755],[91.6955526,26.183925],[91.6955575,26.1839757],[91.69558,26.1840225],[91.6956163,26.1840594],[91.6956635,26.1840845],[91.6957227,26.1840958],[91.6957754,26.1840904]]}},{"type":"Feature","id":"way/517941866","properties":{"kind":"road","name":"","osm_tags":{"access":"private","highway":"service"}},"geometry":{"type":"LineString","coordinates":[[91.6957227,26.1840958],[91.6957372,26.1860244],[91.6957522,26.188007],[91.6957402,26.1891092],[91.6957686,26.1896309],[91.6958217,26.1915455]]}},{"type":"Feature","id":"way/684576020","properties":{"kind":"road","name":"","osm_tags":{"highway":"service"}},"geometry":{"type":"LineString","coordinates":[[91.6985637,26.1904632],[91.6981396,26.1904773],[91.6981162,26.1904687],[91.6981008,26.1904539],[91.6980423,26.1896476],[91.6978843,26.1879912]]}},{"type":"Feature","id":"way/684576021","properties":{"kind":"road","name":"","osm_tags":{"highway":"service"}},"geometry":{"type":"LineString","coordinates":[[91.6957686,26.1896309],[91.6980423,26.1896476]]}},{"type":"Feature","id":"way/755080723","properties":{"kind":"road","name":"","osm_tags":{"access":"private","highway":"service"}},"geometry":{"type":"LineString","coordinates":[[91.6988156,26.1850646],[91.6984995,26.185354],[91.6981719,26.1856121],[91.6981146,26.1856639],[91.6981083,26.1856703],[91.6981057,26.185676],[91.6981053,26.1856818]]}},{"type":"Feature","id":"way/755080724","properties":{"kind":"road","name":"","osm_tags":{"access":"private","highway":"service"}},"geometry":{"type":"LineString","coordinates":[[91.6981053,26.1856818],[91.6981071,26.1856874],[91.6981145,26.1856953],[91.6988535,26.1864283],[91.6988623,26.1864421],[91.6988712,26.1864577],[91.6988987,26.186531],[91.6989085,26.1865441],[91.6989221,26.1865567],[91.698996,26.1866233],[91.6990049,26.1866289],[91.699016,26.1866337],[91.6990242,26.1866364],[91.699034,26.1866391],[91.6991034,26.1866655],[91.699119,26.1866719],[91.6991316,26.186679],[91.6999087,26.1874082]]}},{"type":"Feature","id":"way/755080725","properties":{"kind":"road","name":"","osm_tags":{"access":"private","highway":"service"}},"geometry":{"type":"LineString","coordinates":[[91.7006106,26.1868546],[91.6999087,26.1874082],[91.6999097,26.1874446],[91.6999113,26.1874984]]}},{"type":"Feature","id":"way/758637901","properties":{"kind":"road","name":"","osm_tags":{"access":"private","highway":"service"}},"geometry":{"type":"LineString","coordinates":[[91.6917059,26.1861533],[91.6928643,26.1861554]]}},{"type":"Feature","id":"way/758637902","properties":{"kind":"road","name":"","osm_tags":{"access":"private","highway":"service"}},"geometry":{"type":"LineString","coordinates":[[91.688522,26.1861999],[91.6899003,26.1861966],[91.6913608,26.1861735]]}},{"type":"Feature","id":"way/1142424180","properties":{"kind":"road","name":"","osm_tags":{"highway":"secondary","source":"Yahoo hires"}},"geometry":{"type":"LineString","coordinates":[[91.7019317,26.1853339],[91.7024414,26.1855228],[91.7032475,26.1858223],[91.7038756,26.1860633],[91.7044608,26.1862791],[91.7057061,26.186652],[91.7060697,26.1867203],[91.7063673,26.1867431],[91.7067126,26.1867512],[91.7087381,26.1868228],[91.7092158,26.1868471],[91.7098618,26.1869218],[91.7106194,26.1870066],[91.7107768,26.1870284],[91.7108509,26.187049]]}},{"type":"Feature","id":"way/1142424181","properties":{"kind":"road","name":"","osm_tags":{"bridge":"yes","highway":"secondary","layer":"1","source":"Yahoo hires"}},"geometry":{"type":"LineString","coordinates":[[91.7016513,26.1852406],[91.7019317,26.1853339]]}},{"type":"Feature","id":"way/1144616948","properties":{"kind":"road","name":"","osm_tags":{"highway":"residential","source":"maxar"}},"geometry":{"type":"LineString","coordinates":[[91.701745,26.1860928],[91.7022827,26.1861691]]}},{"type":"Feature","id":"way/1144616949","properties":{"kind":"road","name":"","osm_tags":{"highway":"residential","source":"maxar"}},"geometry":{"type":"LineString","coordinates":[[91.7010569,26.1859873],[91.7015153,26.1860602]]}},{"type":"Feature","id":"way/1144616950","properties":{"kind":"road","name":"","osm_tags":{"bridge":"yes","highway":"residential","layer":"1","source":"maxar"}},"geometry":{"type":"LineString","coordinates":[[91.7015153,26.1860602],[91.701745,26.1860928]]}},{"type":"Feature","id":"way/1144616951","properties":{"kind":"road","name":"","osm_tags":{"highway":"service","source":"maxar"}},"geometry":{"type":"LineString","coordinates":[[91.6985637,26.1904632],[91.6988741,26.1904371],[91.6989276,26.1904188],[91.698971,26.190389],[91.6989991,26.1903432],[91.6989991,26.1902837],[91.6989532,26.1896838],[91.6988689,26.1888205],[91.6987353,26.1876279]]}},{"type":"Feature","id":"way/1144616952","properties":{"kind":"road","name":"","osm_tags":{"highway":"residential"}},"geometry":{"type":"LineString","coordinates":[[91.7057061,26.186652],[91.7056319,26.1868725],[91.7056035,26.1869004],[91.7055717,26.1869061],[91.7048295,26.1867874],[91.7047363,26.1867755],[91.7046273,26.1867666],[91.7043719,26.18676],[91.7040782,26.1867315],[91.7040444,26.186729],[91.7040081,26.1867379],[91.7039826,26.1867632],[91.703952,26.1868397],[91.7038302,26.1871443],[91.7034303,26.1880576]]}},{"type":"Feature","id":"way/1144616953","properties":{"kind":"road","name":"","osm_tags":{"highway":"service"}},"geometry":{"type":"LineString","coordinates":[[91.7027618,26.1891897],[91.7012157,26.1888565],[91.7009932,26.1888086]]}},{"type":"Feature","id":"way/1144616954","properties":{"kind":"road","name":"","osm_tags":{"highway":"service"}},"geometry":{"type":"LineString","coordinates":[[91.7007958,26.1887661],[91.700505,26.1887034]]}},{"type":"Feature","id":"way/1144616955","properties":{"kind":"road","name":"","osm_tags":{"bridge":"yes","highway":"service","layer":"1"}},"geometry":{"type":"LineString","coordinates":[[91.7009932,26.1888086],[91.7007958,26.1887661]]}},{"type":"Feature","id":"way/1144616956","properties":{"kind":"road","name":"","osm_tags":{"highway":"service","source":"maxar"}},"geometry":{"type":"LineString","coordinates":[[91.7012157,26.1888565],[91.7014749,26.1879456]]}},{"type":"Feature","id":"way/1144616957","properties":{"kind":"road","name":"","osm_tags":{"access":"private","highway":"unclassified"}},"geometry":{"type":"LineString","coordinates":[[91.701355,26.1920495],[91.7026157,26.1920185],[91.7026892,26.192032],[91.7027161,26.1920617],[91.7027591,26.1929931],[91.7027252,26.193852],[91.7026997,26.1939263],[91.702636,26.1939664],[91.701546,26.193995],[91.7014568,26.1939606],[91.7014185,26.1938977],[91.7013891,26.1930422],[91.701355,26.1920495],[91.7014313,26.191135],[91.7014094,26.1910859],[91.7004662,26.1908741]]}},{"type":"Feature","id":"way/1144616958","properties":{"kind":"road","name":"","osm_tags":{"access":"private","bridge":"yes","highway":"unclassified","layer":"1"}},"geometry":{"type":"LineString","coordinates":[[91.7004662,26.1908741],[91.7002234,26.1908018]]}},{"type":"Feature","id":"way/1144621134","properties":{"kind":"road","name":"","osm_tags":{"highway":"residential","source":"maxar"}},"geometry":{"type":"LineString","coordinates":[[91.7012056,26.1850792],[91.7012676,26.1848828],[91.7017831,26.1834562]]}},{"type":"Feature","id":"way/1144621135","properties":{"kind":"road","name":"","osm_tags":{"highway":"service","source":"maxar"}},"geometry":{"type":"LineString","coordinates":[[91.6986068,26.1841211],[91.69863,26.1840328],[91.6986585,26.1839406],[91.6986713,26.1838174],[91.6986799,26.1837018],[91.6986971,26.1836017],[91.6987228,26.1835074],[91.6987722,26.1833533]]}},{"type":"Feature","id":"way/1144621136","properties":{"kind":"road","name":"","osm_tags":{"highway":"residential","source":"maxar"}},"geometry":{"type":"LineString","coordinates":[[91.6948083,26.1825211],[91.6947268,26.1827293],[91.6946871,26.1828896],[91.6946365,26.1831681],[91.6946167,26.1832118],[91.6945878,26.1832361],[91.694512,26.1832798],[91.6944597,26.1833106],[91.694411,26.1833559],[91.6943774,26.1834716],[91.6943677,26.1834968],[91.6943551,26.1836441],[91.6943406,26.1836733],[91.6943009,26.183704],[91.6942107,26.1837623],[91.6941746,26.1837963],[91.6941602,26.1838319],[91.6941594,26.1838681],[91.6941548,26.1840635]]}},{"type":"Feature","id":"way/1144621137","properties":{"kind":"road","name":"","osm_tags":{"highway":"residential","source":"maxar"}},"geometry":{"type":"LineString","coordinates":[[91.6949649,26.1840959],[91.6950173,26.1836652],[91.6950515,26.1833397],[91.6950912,26.1830984],[91.6951183,26.1829883],[91.6951598,26.182896],[91.6952331,26.182738]]}},{"type":"Feature","id":"way/1144621138","properties":{"kind":"road","name":"","osm_tags":{"highway":"residential","source":"maxar"}},"geometry":{"type":"LineString","coordinates":[[91.6935247,26.1833542],[91.6935225,26.1827611],[91.6935323,26.1826128],[91.6935397,26.1825223],[91.6935591,26.1823101]]}},{"type":"Feature","id":"way/1144621139","properties":{"kind":"road","name":"","osm_tags":{"access":"private","highway":"service"}},"geometry":{"type":"LineString","coordinates":[[91.696112,26.1832391],[91.6960146,26.1835754],[91.6959797,26.1836374],[91.695934,26.1836962],[91.6958508,26.1838212]]}},{"type":"Feature","id":"way/1144628250","properties":{"kind":"road","name":"","osm_tags":{"highway":"service","source":"maxar"}},"geometry":{"type":"LineString","coordinates":[[91.6988623,26.1864421],[91.698921,26.1864515],[91.6989661,26.1864668],[91.6990141,26.1864963],[91.6990636,26.1865502],[91.6991051,26.1866053],[91.6991252,26.1866425],[91.6991316,26.186679]]}},{"type":"Feature","id":"way/1144628251","properties":{"kind":"road","name":"","osm_tags":{"highway":"unclassified","source":"maxar"}},"geometry":{"type":"LineString","coordinates":[[91.6897054,26.1879314],[91.6897606,26.1879263],[91.6898104,26.1879108],[91.6898736,26.1878848],[91.6899215,26.187861],[91.6899782,26.187823]]}},{"type":"Feature","id":"way/1144636076","properties":{"kind":"road","name":"","osm_tags":{"highway":"service","source":"maxar"}},"geometry":{"type":"LineString","coordinates":[[91.688902,26.1875774],[91.6888009,26.1873754],[91.6887623,26.187256],[91.688728,26.1870461],[91.6886872,26.1867438],[91.6886529,26.1866167],[91.6886057,26.1864838],[91.6885422,26.1862647],[91.688522,26.1861999],[91.6884705,26.1860352],[91.6884297,26.18586],[91.688411,26.1857502],[91.6883948,26.1856289],[91.6883683,26.1853689],[91.6883565,26.1852744],[91.6883396,26.1851822],[91.6883159,26.185078],[91.6882795,26.184928],[91.6882626,26.1848462],[91.6882559,26.1847643],[91.6882495,26.1846642],[91.6882519,26.184624],[91.6882619,26.1845933],[91.6882809,26.1845696],[91.6883044,26.184554],[91.6886847,26.18453],[91.6888811,26.1845128],[91.6889909,26.1844876],[91.68907,26.1844533],[91.6891223,26.1844235],[91.689158,26.184388],[91.6891835,26.1843285],[91.6892167,26.1841739],[91.6892222,26.1841199],[91.6892295,26.184048],[91.6892346,26.1839701],[91.6892282,26.1838739],[91.689209,26.1837984],[91.6891555,26.1836598],[91.689137,26.1836203],[91.6891082,26.1835808],[91.6890751,26.1835436],[91.6890291,26.1835064],[91.6889653,26.183448],[91.6889437,26.1834034],[91.6889411,26.183345],[91.688959,26.1832866],[91.6889909,26.1832385],[91.6892699,26.182927],[91.6893281,26.1828839],[91.6893766,26.1828656],[91.6895233,26.1828462],[91.6897045,26.1828462],[91.6901307,26.1829492],[91.690197,26.1829538],[91.6902531,26.1829435],[91.6903195,26.1829263],[91.6905759,26.1828484],[91.6906257,26.1828404],[91.6906946,26.1828404],[91.6908196,26.1828347],[91.6908566,26.1828256],[91.6908834,26.1828118],[91.6909038,26.1827901],[91.6909141,26.1827626],[91.6909357,26.1826321],[91.6909523,26.1826011],[91.6909791,26.1825794],[91.6910126,26.1825616],[91.6911164,26.1825446],[91.6912671,26.1825446],[91.6919843,26.1825389],[91.6921052,26.1825365],[91.6921539,26.1825575],[91.6921846,26.1825899],[91.6922089,26.1826272],[91.6922405,26.1827316],[91.6922648,26.1828498],[91.6922687,26.1832219],[91.6922333,26.1840798]]}},{"type":"Feature","id":"way/1144636077","properties":{"kind":"road","name":"","osm_tags":{"highway":"service","source":"maxar"}},"geometry":{"type":"LineString","coordinates":[[91.6892222,26.1841199],[91.6893336,26.1841211],[91.689439,26.1841305],[91.6896939,26.1841646],[91.6897985,26.1841811],[91.689894,26.1841976]]}},{"type":"Feature","id":"way/1144636078","properties":{"kind":"road","name":"","osm_tags":{"highway":"service","source":"maxar"}},"geometry":{"type":"LineString","coordinates":[[91.6878298,26.1839283],[91.6878694,26.1841836],[91.6878949,26.1842615],[91.687928,26.1843359],[91.6879752,26.1844023],[91.6880263,26.1844447],[91.6881398,26.184495],[91.6883044,26.184554]]}},{"type":"Feature","id":"way/1144638733","properties":{"kind":"road","name":"","osm_tags":{"highway":"residential","source":"maxar"}},"geometry":{"type":"LineString","coordinates":[[91.6941594,26.1838681],[91.693542,26.1838737],[91.693439,26.183866],[91.6933253,26.1838487],[91.6931944,26.1838217],[91.6930614,26.183814],[91.6929498,26.1838294],[91.6928575,26.1838776],[91.69284,26.1839084],[91.6928275,26.183997]]}},{"type":"Feature","id":"way/1144638734","properties":{"kind":"road","name":"","osm_tags":{"highway":"residential","source":"maxar"}},"geometry":{"type":"LineString","coordinates":[[91.686221,26.183147],[91.6862748,26.1832426],[91.6863279,26.1833175],[91.6864098,26.1833964],[91.6864887,26.1834632],[91.6865673,26.1835149],[91.6867179,26.1835816],[91.6868544,26.1836293],[91.6869849,26.1836647],[91.6871525,26.183701]]}},{"type":"Feature","id":"way/1144638735","properties":{"kind":"road","name":"","osm_tags":{"highway":"residential","source":"maxar"}},"geometry":{"type":"LineString","coordinates":[[91.6850691,26.1884801],[91.68513,26.1884643],[91.6853351,26.1884322],[91.6857579,26.1883942]]}},{"type":"Feature","id":"way/1144638736","properties":{"kind":"road","name":"","osm_tags":{"highway":"service","source":"maxar"}},"geometry":{"type":"LineString","coordinates":[[91.6890979,26.1828816],[91.6887398,26.1832801],[91.688699,26.183334],[91.6886518,26.1834149],[91.688508,26.1837153]]}},{"type":"Feature","id":"way/1144646903","properties":{"kind":"road","name":"","osm_tags":{"highway":"service","source":"maxar"}},"geometry":{"type":"LineString","coordinates":[[91.6976459,26.1880521],[91.6975893,26.1879449],[91.6975587,26.1878429],[91.6975496,26.1877765],[91.6975442,26.1870592]]}},{"type":"Feature","id":"way/1144726457","properties":{"kind":"road","name":"","osm_tags":{"highway":"residential","source":"maxar"}},"geometry":{"type":"LineString","coordinates":[[91.7146442,26.1840162],[91.7145869,26.1839133],[91.714514,26.1838594],[91.7143616,26.1838113],[91.7137651,26.1836938],[91.7132093,26.1836052],[91.7123317,26.1834724],[91.7112009,26.1832625],[91.7111246,26.1832507],[91.7102632,26.1831181],[91.7091388,26.1829428],[91.7090142,26.1829309],[91.7084608,26.1829043],[91.708332,26.1829216],[91.7082247,26.1829563],[91.7081496,26.1829736],[91.7080938,26.1829775],[91.7073645,26.1828889],[91.7072768,26.182888],[91.7064673,26.1828793],[91.705632,26.1828327],[91.7052196,26.1827972],[91.7047057,26.182731],[91.7038002,26.1825827],[91.7030663,26.1824537],[91.7028346,26.1823998]]}},{"type":"Feature","id":"way/1144726459","properties":{"kind":"road","name":"","osm_tags":{"highway":"residential","source":"maxar"}},"geometry":{"type":"LineString","coordinates":[[91.7073256,26.1834832],[91.7073645,26.1828889]]}},{"type":"Feature","id":"way/1190388634","properties":{"kind":"road","name":"","osm_tags":{"highway":"residential","source":"maxar"}},"geometry":{"type":"LineString","coordinates":[[91.6940042,26.1833732],[91.6941101,26.1834006],[91.6943774,26.1834716]]}},{"type":"Feature","id":"way/1192599845","properties":{"kind":"road","name":"","osm_tags":{"highway":"residential"}},"geometry":{"type":"LineString","coordinates":[[91.6957372,26.1860244],[91.6958984,26.1859955],[91.697045,26.1859867],[91.6977652,26.1859811],[91.6978358,26.186024],[91.6978428,26.1869292]]}},{"type":"Feature","id":"way/1491795581","properties":{"kind":"road","name":"","osm_tags":{"embankment":"yes","highway":"residential"}},"geometry":{"type":"LineString","coordinates":[[91.697045,26.1859867],[91.697045,26.1861006]]}},{"type":"Feature","id":"way/1491809957","properties":{"kind":"road","name":"","osm_tags":{"highway":"residential"}},"geometry":{"type":"LineString","coordinates":[[91.6969645,26.1880466],[91.6969952,26.1886041]]}},{"type":"Feature","id":"way/1536840039","properties":{"kind":"road","name":"","osm_tags":{"access":"private","highway":"service"}},"geometry":{"type":"LineString","coordinates":[[91.6986129,26.190941],[91.6985637,26.1904632]]}},{"type":"Feature","id":"way/121436088","properties":{"kind":"path","name":"","osm_tags":{"access":"private","highway":"path"}},"geometry":{"type":"LineString","coordinates":[[91.6918411,26.1895246],[91.6920324,26.1894008]]}},{"type":"Feature","id":"way/121436094","properties":{"kind":"path","name":"","osm_tags":{"access":"private","highway":"path"}},"geometry":{"type":"LineString","coordinates":[[91.6930373,26.1898323],[91.6934081,26.1898154],[91.6933881,26.1905478],[91.6925001,26.1905846]]}},{"type":"Feature","id":"way/121436100","properties":{"kind":"path","name":"","osm_tags":{"access":"private","highway":"path"}},"geometry":{"type":"LineString","coordinates":[[91.6929249,26.1901059],[91.692964,26.190083],[91.6930097,26.1900745],[91.6930557,26.1900817],[91.6930956,26.1901035],[91.6931254,26.1901403],[91.6931365,26.1901848],[91.6931269,26.1902295],[91.6930983,26.1902671],[91.6930573,26.1902907],[91.6930094,26.1902984],[91.6929619,26.1902891],[91.6929219,26.1902642],[91.6928956,26.1902275],[91.6928869,26.1901845],[91.6928972,26.1901418],[91.6929249,26.1901059]]}},{"type":"Feature","id":"way/121436124","properties":{"kind":"path","name":"","osm_tags":{"highway":"path"}},"geometry":{"type":"LineString","coordinates":[[91.6930373,26.1898323],[91.6930329,26.1895482]]}},{"type":"Feature","id":"way/121436141","properties":{"kind":"path","name":"","osm_tags":{"highway":"path"}},"geometry":{"type":"LineString","coordinates":[[91.6919794,26.1896725],[91.6923125,26.1900174]]}},{"type":"Feature","id":"way/121436142","properties":{"kind":"path","name":"","osm_tags":{"access":"private","highway":"path"}},"geometry":{"type":"LineString","coordinates":[[91.691582,26.1914064],[91.691603,26.1912696],[91.691616,26.1911857],[91.6916925,26.1909934],[91.6919137,26.1907047]]}},{"type":"Feature","id":"way/121436145","properties":{"kind":"path","name":"","osm_tags":{"access":"private","highway":"path"}},"geometry":{"type":"LineString","coordinates":[[91.692674,26.1898673],[91.6923125,26.1900174],[91.6923585,26.1902883],[91.6919137,26.1907047]]}},{"type":"Feature","id":"way/121455429","properties":{"kind":"path","name":"","osm_tags":{"access":"private","highway":"path"}},"geometry":{"type":"LineString","coordinates":[[91.7004943,26.1887853],[91.7005479,26.1887784],[91.7026914,26.1892504]]}},{"type":"Feature","id":"way/684576014","properties":{"kind":"path","name":"","osm_tags":{"highway":"path"}},"geometry":{"type":"LineString","coordinates":[[91.6930956,26.1901035],[91.6934081,26.1898154],[91.6938674,26.189438],[91.6941565,26.1892428]]}},{"type":"Feature","id":"way/684576015","properties":{"kind":"path","name":"","osm_tags":{"highway":"path","surface":"asphalt"}},"geometry":{"type":"LineString","coordinates":[[91.691603,26.1912696],[91.691975,26.1912034],[91.6925001,26.1905846]]}},{"type":"Feature","id":"way/1144649731","properties":{"kind":"path","name":"","osm_tags":{"access":"private","highway":"path"}},"geometry":{"type":"LineString","coordinates":[[91.6925001,26.1905846],[91.6923585,26.1902883],[91.6925011,26.1902515],[91.6925148,26.190189],[91.6924985,26.1901112],[91.6923125,26.1900174]]}},{"type":"Feature","id":"way/1180925705","properties":{"kind":"path","name":"","osm_tags":{"access":"private","highway":"path"}},"geometry":{"type":"LineString","coordinates":[[91.692674,26.1898673],[91.6930373,26.1898323]]}},{"type":"Feature","id":"way/1180925792","properties":{"kind":"path","name":"","osm_tags":{"access":"private","highway":"path"}},"geometry":{"type":"LineString","coordinates":[[91.6930983,26.1902671],[91.6933881,26.1905478],[91.6934955,26.1906378],[91.6943089,26.1914311],[91.6944051,26.1915929]]}},{"type":"Feature","id":"way/1180925793","properties":{"kind":"path","name":"","osm_tags":{"access":"private","highway":"path"}},"geometry":{"type":"LineString","coordinates":[[91.6915775,26.1883642],[91.6917522,26.1886859],[91.6918173,26.1888523],[91.6918206,26.1891229],[91.6919897,26.1892969],[91.6920324,26.1894008],[91.692674,26.1898673],[91.6929249,26.1901059]]}},{"type":"Feature","id":"way/1182827315","properties":{"kind":"path","name":"","osm_tags":{"bicycle":"no","foot":"yes","highway":"footway","horse":"no","motor_vehicle":"no","surface":"paving_stones"}},"geometry":{"type":"LineString","coordinates":[[91.6958173,26.1923322],[91.6972152,26.1923068],[91.6972132,26.1922252],[91.6972112,26.1921435],[91.6977065,26.1921363],[91.6982017,26.192129],[91.69823,26.1920964],[91.6985219,26.1919998]]}},{"type":"Feature","id":"way/1185666797","properties":{"kind":"path","name":"Footpath surrounding sports area","osm_tags":{"access":"no","foot":"yes","highway":"footway","name":"Footpath surrounding sports area","surface":"paved"}},"geometry":{"type":"LineString","coordinates":[[91.6982017,26.192129],[91.6983913,26.1921697],[91.698476,26.1922362],[91.6985448,26.1924213],[91.6988357,26.1937268],[91.6988252,26.1937791],[91.6987723,26.1937933],[91.6975025,26.1937696],[91.6966084,26.1937221],[91.6960529,26.1937031],[91.6957513,26.1937173],[91.6955979,26.1937221],[91.6955556,26.1926445],[91.6958156,26.192635]]}},{"type":"Feature","id":"way/1185670009","properties":{"kind":"path","name":"","osm_tags":{"access":"no","bicycle":"yes","foot":"yes","highway":"footway","surface":"paved"}},"geometry":{"type":"LineString","coordinates":[[91.7007366,26.1870383],[91.7008193,26.1868787],[91.7008862,26.1867244]]}}],"source":{"attribution":"OpenStreetMap contributors","license":"ODbL-1.0","license_url":"https://opendatacommons.org/licenses/odbl/1-0/","url":"https://overpass-api.de/api/interpreter?data=%5Bout%3Ajson%5D%5Btimeout%3A25%5D%3Bway%5B~%22%5E%28highway%7Cbuilding%7Cnatural%7Clanduse%7Cleisure%7Cwaterway%29%24%22~%22.%22%5D%2826.179%2C91.685%2C26.195%2C91.708%29%3Bout+geom%3B","bbox_south_west_north_east":[26.179,91.685,26.195,91.708],"osm_timestamp":"2026-09-27T09:37:51Z","purpose":"Display-only geographic context; never used to fit or classify survey data"}}
